<?xml version="1.0" encoding="UTF-8" standalone="no" ?>
<gpx xmlns="http://www.topografix.com/GPX/1/1" creator="www.plotaroute.com" version="1.1"  xmlns:xsi="http://www.w3.org/2001/XMLSchema-instance" xsi:schemaLocation="http://www.topografix.com/GPX/1/1 http://www.topografix.com/GPX/1/1/gpx.xsd">
<metadata>
<desc>Route created on plotaroute.com</desc>
</metadata>
<wpt lat="3.160854" lon="101.695365">
<time>2026-10-02T00:08:20Z</time>
<name>Turn right</name>
<cmt>Turn right onto Jalan Sultan Ismail</cmt>
<desc>Turn right onto Jalan Sultan Ismail</desc>
<sym>Right</sym>
<type>Waypoint</type>
</wpt>
<wpt lat="3.159867" lon="101.696854">
<time>2026-10-02T00:09:32Z</time>
<name>Turn right</name>
<cmt>Turn right onto Jalan Tuanku Abdul Rahman</cmt>
<desc>Turn right onto Jalan Tuanku Abdul Rahman</desc>
<sym>Right</sym>
<type>Waypoint</type>
</wpt>
<wpt lat="3.156856" lon="101.695962">
<time>2026-10-02T00:11:40Z</time>
<name>Turn left </name>
<cmt>Turn left onto Jalan Dang Wangi</cmt>
<desc>Turn left onto Jalan Dang Wangi</desc>
<sym>Left</sym>
<type>Waypoint</type>
</wpt>
<wpt lat="3.15668" lon="101.697981">
<time>2026-10-02T00:13:03Z</time>
<name>Keep right</name>
<cmt>Keep right onto Jalan Munshi Abdullah</cmt>
<desc>Keep right onto Jalan Munshi Abdullah</desc>
<sym>Straight</sym>
<type>Waypoint</type>
</wpt>
<wpt lat="3.153009" lon="101.698614">
<time>2026-10-02T00:15:44Z</time>
<name>Keep left </name>
<cmt>Keep left onto Jalan Munshi Abdullah</cmt>
<desc>Keep left onto Jalan Munshi Abdullah</desc>
<sym>Straight</sym>
<type>Waypoint</type>
</wpt>
<wpt lat="3.152212" lon="101.698787">
<time>2026-10-02T00:16:18Z</time>
<name>Turn sligh</name>
<cmt>Turn slight left onto Jalan Ampang</cmt>
<desc>Turn slight left onto Jalan Ampang</desc>
<sym>Left_slight</sym>
<type>Waypoint</type>
</wpt>
<wpt lat="3.154474" lon="101.70135">
<time>2026-10-02T00:18:41Z</time>
<name>Keep right</name>
<cmt>Keep right onto Jalan Ampang</cmt>
<desc>Keep right onto Jalan Ampang</desc>
<sym>Straight</sym>
<type>Waypoint</type>
</wpt>
<wpt lat="3.156472" lon="101.704639">
<time>2026-10-02T00:21:29Z</time>
<name>Turn right</name>
<cmt>Turn right onto Jalan Sultan Ismail</cmt>
<desc>Turn right onto Jalan Sultan Ismail</desc>
<sym>Right</sym>
<type>Waypoint</type>
</wpt>
<wpt lat="3.146683" lon="101.711212">
<time>2026-10-02T00:29:58Z</time>
<name>Turn right</name>
<cmt>Turn right onto Jalan Bukit Bintang</cmt>
<desc>Turn right onto Jalan Bukit Bintang</desc>
<sym>Right</sym>
<type>Waypoint</type>
</wpt>
<wpt lat="3.14423" lon="101.708055">
<time>2026-10-02T00:32:38Z</time>
<name>Keep left </name>
<cmt>Keep left and drive toward Pudu Sentral, Jalan Sultan Ismail, Jalan Imbi</cmt>
<desc>Keep left and drive toward Pudu Sentral, Jalan Sultan Ismail, Jalan Imbi</desc>
<sym>Straight</sym>
<type>Waypoint</type>
</wpt>
<wpt lat="3.142527" lon="101.707949">
<time>2026-10-02T00:34:04Z</time>
<name>Keep left </name>
<cmt>Keep left and drive toward Jalan Imbi, Jalan Sultan Ismail</cmt>
<desc>Keep left and drive toward Jalan Imbi, Jalan Sultan Ismail</desc>
<sym>Left_slight</sym>
<type>Waypoint</type>
</wpt>
<wpt lat="3.14361" lon="101.712282">
<time>2026-10-02T00:37:07Z</time>
<name>Turn left </name>
<cmt>Turn left onto Jalan Sultan Ismail</cmt>
<desc>Turn left onto Jalan Sultan Ismail</desc>
<sym>Left</sym>
<type>Waypoint</type>
</wpt>
<wpt lat="3.146645" lon="101.7113">
<time>2026-10-02T00:39:15Z</time>
<name>Turn right</name>
<cmt>Turn right</cmt>
<desc>Turn right</desc>
<sym>Right_slight</sym>
<type>Waypoint</type>
</wpt>
<wpt lat="3.146645" lon="101.7113">
<time>2026-10-02T00:39:16Z</time>
<name>Turn sharp</name>
<cmt>Turn sharp right onto Jalan Sultan Ismail</cmt>
<desc>Turn sharp right onto Jalan Sultan Ismail</desc>
<sym>Right_sharp</sym>
<type>Waypoint</type>
</wpt>
<wpt lat="3.146725" lon="101.711274">
<time>2026-10-02T00:39:19Z</time>
<name>Turn right</name>
<cmt>Turn right onto Jalan Bukit Bintang</cmt>
<desc>Turn right onto Jalan Bukit Bintang</desc>
<sym>Right</sym>
<type>Waypoint</type>
</wpt>
<wpt lat="3.15015" lon="101.710873">
<time>2026-10-02T00:51:36Z</time>
<name>Keep right</name>
<cmt>Keep right onto Jalan Sultan Ismail</cmt>
<desc>Keep right onto Jalan Sultan Ismail</desc>
<sym>Right_slight</sym>
<type>Waypoint</type>
</wpt>
<wpt lat="3.156501" lon="101.704758">
<time>2026-10-02T00:57:43Z</time>
<name>Turn sharp</name>
<cmt>Turn sharp right onto Jalan Ampang</cmt>
<desc>Turn sharp right onto Jalan Ampang</desc>
<sym>Right_sharp</sym>
<type>Waypoint</type>
</wpt>
<wpt lat="3.160505" lon="101.733549">
<time>2026-10-02T01:17:48Z</time>
<name>Keep left </name>
<cmt>Keep left onto Jalan Ampang</cmt>
<desc>Keep left onto Jalan Ampang</desc>
<sym>Straight</sym>
<type>Waypoint</type>
</wpt>
<wpt lat="3.160567" lon="101.735021">
<time>2026-10-02T01:18:48Z</time>
<name>Keep left</name>
<cmt>Keep left</cmt>
<desc>Keep left</desc>
<sym>Straight</sym>
<type>Waypoint</type>
</wpt>
<wpt lat="3.163813" lon="101.734925">
<time>2026-10-02T01:21:12Z</time>
<name>Keep left </name>
<cmt>Keep left and take E12 toward Pusat Bandaraya, Jalan Tun Razak, KLCC</cmt>
<desc>Keep left and take E12 toward Pusat Bandaraya, Jalan Tun Razak, KLCC</desc>
<sym>Straight</sym>
<type>Waypoint</type>
</wpt>
<wpt lat="3.160248" lon="101.70512">
<time>2026-10-02T01:42:35Z</time>
<name>Keep left</name>
<cmt>Keep left</cmt>
<desc>Keep left</desc>
<sym>Straight</sym>
<type>Waypoint</type>
</wpt>
<wpt lat="3.158713" lon="101.703541">
<time>2026-10-02T01:44:04Z</time>
<name>Keep right</name>
<cmt>Keep right toward E12</cmt>
<desc>Keep right toward E12</desc>
<sym>Straight</sym>
<type>Waypoint</type>
</wpt>
<wpt lat="3.164507" lon="101.748762">
<time>2026-10-02T02:17:19Z</time>
<name>Keep left </name>
<cmt>Keep left and take 28 toward Hulu Kelang (JLT II), Gombak, Batu Caves, Kuantan</cmt>
<desc>Keep left and take 28 toward Hulu Kelang (JLT II), Gombak, Batu Caves, Kuantan</desc>
<sym>Straight</sym>
<type>Waypoint</type>
</wpt>
<wpt lat="3.175583" lon="101.756489">
<time>2026-10-02T02:28:34Z</time>
<name>Keep left </name>
<cmt>Keep left and take E33 toward Kepong/Segambut, Bandar Sri Damansara, Kuala Selangor, Ipoh/Karak</cmt>
<desc>Keep left and take E33 toward Kepong/Segambut, Bandar Sri Damansara, Kuala Selangor, Ipoh/Karak</desc>
<sym>Straight</sym>
<type>Waypoint</type>
</wpt>
<wpt lat="3.192224" lon="101.672594">
<time>2026-10-02T03:29:53Z</time>
<name>Keep left </name>
<cmt>Keep left and take 1 toward Pusat Bandaraya, Jalan Kuching</cmt>
<desc>Keep left and take 1 toward Pusat Bandaraya, Jalan Kuching</desc>
<sym>Straight</sym>
<type>Waypoint</type>
</wpt>
<wpt lat="3.148555" lon="101.694243">
<time>2026-10-02T04:15:21Z</time>
<name>FINISH</name>
<cmt>FINISH</cmt>
<desc>FINISH</desc>
<sym>Flag, Blue</sym>
<type>Waypoint</type>
</wpt>
<trk>
<name>FM - Download GPX File Here</name>
<trkseg>
<trkpt lat="3.148572" lon="101.694152">
<ele>34</ele>
<time>2026-10-02T00:00:00Z</time></trkpt>
<trkpt lat="3.148575" lon="101.694153">
<ele>34</ele>
<time>2026-10-02T00:00:00Z</time></trkpt>
<trkpt lat="3.148575" lon="101.694153">
<ele>34</ele>
<time>2026-10-02T00:00:00Z</time></trkpt>
<trkpt lat="3.148697" lon="101.694177">
<ele>34</ele>
<time>2026-10-02T00:00:05Z</time></trkpt>
<trkpt lat="3.148697" lon="101.694177">
<ele>34</ele>
<time>2026-10-02T00:00:05Z</time></trkpt>
<trkpt lat="3.1488131" lon="101.6942034">
<ele>35</ele>
<time>2026-10-02T00:00:10Z</time></trkpt>
<trkpt lat="3.149538" lon="101.694351">
<ele>32</ele>
<time>2026-10-02T00:00:40Z</time></trkpt>
<trkpt lat="3.149814" lon="101.694418">
<ele>31</ele>
<time>2026-10-02T00:00:51Z</time></trkpt>
<trkpt lat="3.15014" lon="101.694507">
<ele>30</ele>
<time>2026-10-02T00:01:04Z</time></trkpt>
<trkpt lat="3.151189" lon="101.69468">
<ele>40</ele>
<time>2026-10-02T00:01:47Z</time></trkpt>
<trkpt lat="3.151989" lon="101.694699">
<ele>45</ele>
<time>2026-10-02T00:02:19Z</time></trkpt>
<trkpt lat="3.152982" lon="101.694709">
<ele>47</ele>
<time>2026-10-02T00:02:59Z</time></trkpt>
<trkpt lat="3.15607" lon="101.694655">
<ele>39</ele>
<time>2026-10-02T00:05:03Z</time></trkpt>
<trkpt lat="3.156568" lon="101.694656">
<ele>39</ele>
<time>2026-10-02T00:05:23Z</time></trkpt>
<trkpt lat="3.156785" lon="101.69467">
<ele>40</ele>
<time>2026-10-02T00:05:31Z</time></trkpt>
<trkpt lat="3.157591" lon="101.694593">
<ele>48</ele>
<time>2026-10-02T00:06:04Z</time></trkpt>
<trkpt lat="3.158533" lon="101.694577">
<ele>46</ele>
<time>2026-10-02T00:06:42Z</time></trkpt>
<trkpt lat="3.158642" lon="101.694586">
<ele>45</ele>
<time>2026-10-02T00:06:46Z</time></trkpt>
<trkpt lat="3.159284" lon="101.694762">
<ele>42</ele>
<time>2026-10-02T00:07:13Z</time></trkpt>
<trkpt lat="3.1602377" lon="101.6951403">
<ele>42</ele>
<time>2026-10-02T00:07:54Z</time></trkpt>
<trkpt lat="3.160236" lon="101.695145">
<ele>42</ele>
<time>2026-10-02T00:07:54Z</time></trkpt>
<trkpt lat="3.160464" lon="101.69523">
<ele>46</ele>
<time>2026-10-02T00:08:04Z</time></trkpt>
<trkpt lat="3.160675" lon="101.695302">
<ele>51</ele>
<time>2026-10-02T00:08:13Z</time></trkpt>
<trkpt lat="3.160675" lon="101.695302">
<ele>51</ele>
<time>2026-10-02T00:08:13Z</time></trkpt>
<trkpt lat="3.160817" lon="101.695352">
<ele>55</ele>
<time>2026-10-02T00:08:19Z</time></trkpt>
<trkpt lat="3.160817" lon="101.695352">
<ele>55</ele>
<time>2026-10-02T00:08:19Z</time></trkpt>
<trkpt lat="3.160854" lon="101.695365">
<ele>56</ele>
<time>2026-10-02T00:08:20Z</time></trkpt>
<trkpt lat="3.160705" lon="101.695605">
<ele>60</ele>
<time>2026-10-02T00:08:32Z</time></trkpt>
<trkpt lat="3.160705" lon="101.695605">
<ele>60</ele>
<time>2026-10-02T00:08:32Z</time></trkpt>
<trkpt lat="3.160511" lon="101.695919">
<ele>58</ele>
<time>2026-10-02T00:08:46Z</time></trkpt>
<trkpt lat="3.160327" lon="101.696156">
<ele>48</ele>
<time>2026-10-02T00:08:58Z</time></trkpt>
<trkpt lat="3.159966" lon="101.696711">
<ele>38</ele>
<time>2026-10-02T00:09:25Z</time></trkpt>
<trkpt lat="3.159966" lon="101.696711">
<ele>38</ele>
<time>2026-10-02T00:09:25Z</time></trkpt>
<trkpt lat="3.15989" lon="101.696821">
<ele>40</ele>
<time>2026-10-02T00:09:30Z</time></trkpt>
<trkpt lat="3.15989" lon="101.696821">
<ele>40</ele>
<time>2026-10-02T00:09:30Z</time></trkpt>
<trkpt lat="3.159867" lon="101.696854">
<ele>40</ele>
<time>2026-10-02T00:09:32Z</time></trkpt>
<trkpt lat="3.159555" lon="101.696716">
<ele>44</ele>
<time>2026-10-02T00:09:45Z</time></trkpt>
<trkpt lat="3.159555" lon="101.696716">
<ele>44</ele>
<time>2026-10-02T00:09:45Z</time></trkpt>
<trkpt lat="3.1590779" lon="101.6965043">
<ele>54</ele>
<time>2026-10-02T00:10:06Z</time></trkpt>
<trkpt lat="3.15832" lon="101.696168">
<ele>50</ele>
<time>2026-10-02T00:10:40Z</time></trkpt>
<trkpt lat="3.15832" lon="101.696168">
<ele>50</ele>
<time>2026-10-02T00:10:40Z</time></trkpt>
<trkpt lat="3.157829" lon="101.695963">
<ele>47</ele>
<time>2026-10-02T00:11:01Z</time></trkpt>
<trkpt lat="3.157656" lon="101.695916">
<ele>46</ele>
<time>2026-10-02T00:11:08Z</time></trkpt>
<trkpt lat="3.157446" lon="101.695889">
<ele>44</ele>
<time>2026-10-02T00:11:17Z</time></trkpt>
<trkpt lat="3.156856" lon="101.695962">
<ele>44</ele>
<time>2026-10-02T00:11:40Z</time></trkpt>
<trkpt lat="3.156961" lon="101.696644">
<ele>43</ele>
<time>2026-10-02T00:12:08Z</time></trkpt>
<trkpt lat="3.156968" lon="101.696817">
<ele>42</ele>
<time>2026-10-02T00:12:15Z</time></trkpt>
<trkpt lat="3.156955" lon="101.69693">
<ele>42</ele>
<time>2026-10-02T00:12:19Z</time></trkpt>
<trkpt lat="3.1568055" lon="101.6975014">
<ele>39</ele>
<time>2026-10-02T00:12:43Z</time></trkpt>
<trkpt lat="3.156801" lon="101.6975">
<ele>39</ele>
<time>2026-10-02T00:12:43Z</time></trkpt>
<trkpt lat="3.1567032" lon="101.6978889">
<ele>36</ele>
<time>2026-10-02T00:12:59Z</time></trkpt>
<trkpt lat="3.156702" lon="101.697889">
<ele>36</ele>
<time>2026-10-02T00:12:59Z</time></trkpt>
<trkpt lat="3.1566893" lon="101.6979421">
<ele>36</ele>
<time>2026-10-02T00:13:02Z</time></trkpt>
<trkpt lat="3.156689" lon="101.697942">
<ele>36</ele>
<time>2026-10-02T00:13:02Z</time></trkpt>
<trkpt lat="3.15668" lon="101.697981">
<ele>35</ele>
<time>2026-10-02T00:13:03Z</time></trkpt>
<trkpt lat="3.156543" lon="101.698368">
<ele>34</ele>
<time>2026-10-02T00:13:20Z</time></trkpt>
<trkpt lat="3.1564656" lon="101.6984583">
<ele>35</ele>
<time>2026-10-02T00:13:24Z</time></trkpt>
<trkpt lat="3.1564082" lon="101.6985081">
<ele>36</ele>
<time>2026-10-02T00:13:27Z</time></trkpt>
<trkpt lat="3.1563306" lon="101.6985163">
<ele>36</ele>
<time>2026-10-02T00:13:31Z</time></trkpt>
<trkpt lat="3.1557816" lon="101.6984895">
<ele>42</ele>
<time>2026-10-02T00:13:53Z</time></trkpt>
<trkpt lat="3.1553076" lon="101.6984734">
<ele>45</ele>
<time>2026-10-02T00:14:12Z</time></trkpt>
<trkpt lat="3.1547854" lon="101.6984627">
<ele>45</ele>
<time>2026-10-02T00:14:33Z</time></trkpt>
<trkpt lat="3.1543461" lon="101.6984814">
<ele>39</ele>
<time>2026-10-02T00:14:50Z</time></trkpt>
<trkpt lat="3.1539766" lon="101.6984922">
<ele>36</ele>
<time>2026-10-02T00:15:05Z</time></trkpt>
<trkpt lat="3.1534463" lon="101.6985324">
<ele>34</ele>
<time>2026-10-02T00:15:26Z</time></trkpt>
<trkpt lat="3.153374" lon="101.698578">
<ele>33</ele>
<time>2026-10-02T00:15:30Z</time></trkpt>
<trkpt lat="3.153213" lon="101.6985942">
<ele>34</ele>
<time>2026-10-02T00:15:36Z</time></trkpt>
<trkpt lat="3.153009" lon="101.698614">
<ele>37</ele>
<time>2026-10-02T00:15:44Z</time></trkpt>
<trkpt lat="3.152775" lon="101.698668">
<ele>41</ele>
<time>2026-10-02T00:15:54Z</time></trkpt>
<trkpt lat="3.152418" lon="101.698692">
<ele>48</ele>
<time>2026-10-02T00:16:08Z</time></trkpt>
<trkpt lat="3.152418" lon="101.698692">
<ele>48</ele>
<time>2026-10-02T00:16:08Z</time></trkpt>
<trkpt lat="3.152269" lon="101.698721">
<ele>51</ele>
<time>2026-10-02T00:16:14Z</time></trkpt>
<trkpt lat="3.152212" lon="101.698787">
<ele>54</ele>
<time>2026-10-02T00:16:18Z</time></trkpt>
<trkpt lat="3.152215" lon="101.698927">
<ele>57</ele>
<time>2026-10-02T00:16:24Z</time></trkpt>
<trkpt lat="3.152286" lon="101.699126">
<ele>60</ele>
<time>2026-10-02T00:16:32Z</time></trkpt>
<trkpt lat="3.152284" lon="101.699216">
<ele>61</ele>
<time>2026-10-02T00:16:36Z</time></trkpt>
<trkpt lat="3.152495" lon="101.699616">
<ele>59</ele>
<time>2026-10-02T00:16:54Z</time></trkpt>
<trkpt lat="3.152747" lon="101.699947">
<ele>53</ele>
<time>2026-10-02T00:17:10Z</time></trkpt>
<trkpt lat="3.153342" lon="101.700625">
<ele>46</ele>
<time>2026-10-02T00:17:46Z</time></trkpt>
<trkpt lat="3.153615" lon="101.700893">
<ele>49</ele>
<time>2026-10-02T00:18:02Z</time></trkpt>
<trkpt lat="3.154278" lon="101.701278">
<ele>56</ele>
<time>2026-10-02T00:18:33Z</time></trkpt>
<trkpt lat="3.154474" lon="101.70135">
<ele>56</ele>
<time>2026-10-02T00:18:41Z</time></trkpt>
<trkpt lat="3.154556" lon="101.701393">
<ele>56</ele>
<time>2026-10-02T00:18:45Z</time></trkpt>
<trkpt lat="3.154556" lon="101.701393">
<ele>56</ele>
<time>2026-10-02T00:18:45Z</time></trkpt>
<trkpt lat="3.155115" lon="101.701698">
<ele>55</ele>
<time>2026-10-02T00:19:10Z</time></trkpt>
<trkpt lat="3.155366" lon="101.701852">
<ele>53</ele>
<time>2026-10-02T00:19:22Z</time></trkpt>
<trkpt lat="3.155565" lon="101.702">
<ele>51</ele>
<time>2026-10-02T00:19:32Z</time></trkpt>
<trkpt lat="3.155714" lon="101.702143">
<ele>48</ele>
<time>2026-10-02T00:19:40Z</time></trkpt>
<trkpt lat="3.156031" lon="101.702515">
<ele>44</ele>
<time>2026-10-02T00:20:00Z</time></trkpt>
<trkpt lat="3.156256" lon="101.70287">
<ele>45</ele>
<time>2026-10-02T00:20:16Z</time></trkpt>
<trkpt lat="3.156306" lon="101.703016">
<ele>46</ele>
<time>2026-10-02T00:20:23Z</time></trkpt>
<trkpt lat="3.156501" lon="101.703869">
<ele>44</ele>
<time>2026-10-02T00:20:58Z</time></trkpt>
<trkpt lat="3.156504" lon="101.704141">
<ele>43</ele>
<time>2026-10-02T00:21:09Z</time></trkpt>
<trkpt lat="3.156504" lon="101.704141">
<ele>43</ele>
<time>2026-10-02T00:21:09Z</time></trkpt>
<trkpt lat="3.156473" lon="101.70457">
<ele>44</ele>
<time>2026-10-02T00:21:26Z</time></trkpt>
<trkpt lat="3.156473" lon="101.70457">
<ele>44</ele>
<time>2026-10-02T00:21:26Z</time></trkpt>
<trkpt lat="3.156472" lon="101.704639">
<ele>44</ele>
<time>2026-10-02T00:21:29Z</time></trkpt>
<trkpt lat="3.1562919" lon="101.7047228">
<ele>46</ele>
<time>2026-10-02T00:21:36Z</time></trkpt>
<trkpt lat="3.1562617" lon="101.7047367">
<ele>47</ele>
<time>2026-10-02T00:21:38Z</time></trkpt>
<trkpt lat="3.155671" lon="101.705017">
<ele>51</ele>
<time>2026-10-02T00:22:04Z</time></trkpt>
<trkpt lat="3.155425" lon="101.705216">
<ele>59</ele>
<time>2026-10-02T00:22:17Z</time></trkpt>
<trkpt lat="3.155293" lon="101.705366">
<ele>65</ele>
<time>2026-10-02T00:22:25Z</time></trkpt>
<trkpt lat="3.155181" lon="101.705538">
<ele>73</ele>
<time>2026-10-02T00:22:33Z</time></trkpt>
<trkpt lat="3.155045" lon="101.705819">
<ele>88</ele>
<time>2026-10-02T00:22:45Z</time></trkpt>
<trkpt lat="3.154812" lon="101.706459">
<ele>95</ele>
<time>2026-10-02T00:23:13Z</time></trkpt>
<trkpt lat="3.154672" lon="101.706712">
<ele>92</ele>
<time>2026-10-02T00:23:24Z</time></trkpt>
<trkpt lat="3.154544" lon="101.7069">
<ele>86</ele>
<time>2026-10-02T00:23:33Z</time></trkpt>
<trkpt lat="3.153504" lon="101.707985">
<ele>75</ele>
<time>2026-10-02T00:24:34Z</time></trkpt>
<trkpt lat="3.15333" lon="101.708245">
<ele>71</ele>
<time>2026-10-02T00:24:46Z</time></trkpt>
<trkpt lat="3.153151" lon="101.708599">
<ele>70</ele>
<time>2026-10-02T00:25:02Z</time></trkpt>
<trkpt lat="3.152965" lon="101.709015">
<ele>70</ele>
<time>2026-10-02T00:25:20Z</time></trkpt>
<trkpt lat="3.152784" lon="101.709274">
<ele>67</ele>
<time>2026-10-02T00:25:33Z</time></trkpt>
<trkpt lat="3.152581" lon="101.709476">
<ele>66</ele>
<time>2026-10-02T00:25:44Z</time></trkpt>
<trkpt lat="3.152322" lon="101.709678">
<ele>69</ele>
<time>2026-10-02T00:25:57Z</time></trkpt>
<trkpt lat="3.15197" lon="101.709904">
<ele>76</ele>
<time>2026-10-02T00:26:14Z</time></trkpt>
<trkpt lat="3.151385" lon="101.710204">
<ele>92</ele>
<time>2026-10-02T00:26:41Z</time></trkpt>
<trkpt lat="3.1507326" lon="101.7103972">
<ele>86</ele>
<time>2026-10-02T00:27:08Z</time></trkpt>
<trkpt lat="3.150733" lon="101.710398">
<ele>86</ele>
<time>2026-10-02T00:27:08Z</time></trkpt>
<trkpt lat="3.1506234" lon="101.7104331">
<ele>81</ele>
<time>2026-10-02T00:27:12Z</time></trkpt>
<trkpt lat="3.1503691" lon="101.7105246">
<ele>73</ele>
<time>2026-10-02T00:27:23Z</time></trkpt>
<trkpt lat="3.1501736" lon="101.7106158">
<ele>69</ele>
<time>2026-10-02T00:27:32Z</time></trkpt>
<trkpt lat="3.1499165" lon="101.7107713">
<ele>66</ele>
<time>2026-10-02T00:27:44Z</time></trkpt>
<trkpt lat="3.1496594" lon="101.7109242">
<ele>61</ele>
<time>2026-10-02T00:27:56Z</time></trkpt>
<trkpt lat="3.1495201" lon="101.7109832">
<ele>59</ele>
<time>2026-10-02T00:28:02Z</time></trkpt>
<trkpt lat="3.1493728" lon="101.7110127">
<ele>56</ele>
<time>2026-10-02T00:28:08Z</time></trkpt>
<trkpt lat="3.1492419" lon="101.7110218">
<ele>54</ele>
<time>2026-10-02T00:28:13Z</time></trkpt>
<trkpt lat="3.149162" lon="101.711026">
<ele>53</ele>
<time>2026-10-02T00:28:16Z</time></trkpt>
<trkpt lat="3.1490164" lon="101.7110033">
<ele>57</ele>
<time>2026-10-02T00:28:22Z</time></trkpt>
<trkpt lat="3.14839" lon="101.710906">
<ele>77</ele>
<time>2026-10-02T00:28:48Z</time></trkpt>
<trkpt lat="3.148287" lon="101.710902">
<ele>78</ele>
<time>2026-10-02T00:28:52Z</time></trkpt>
<trkpt lat="3.148287" lon="101.710902">
<ele>78</ele>
<time>2026-10-02T00:28:52Z</time></trkpt>
<trkpt lat="3.148082" lon="101.710895">
<ele>73</ele>
<time>2026-10-02T00:29:00Z</time></trkpt>
<trkpt lat="3.147884" lon="101.710908">
<ele>69</ele>
<time>2026-10-02T00:29:08Z</time></trkpt>
<trkpt lat="3.1471679" lon="101.7110791">
<ele>61</ele>
<time>2026-10-02T00:29:38Z</time></trkpt>
<trkpt lat="3.147167" lon="101.711074">
<ele>61</ele>
<time>2026-10-02T00:29:38Z</time></trkpt>
<trkpt lat="3.146804" lon="101.711166">
<ele>61</ele>
<time>2026-10-02T00:29:53Z</time></trkpt>
<trkpt lat="3.14672" lon="101.711198">
<ele>61</ele>
<time>2026-10-02T00:29:56Z</time></trkpt>
<trkpt lat="3.14672" lon="101.711198">
<ele>61</ele>
<time>2026-10-02T00:29:56Z</time></trkpt>
<trkpt lat="3.146683" lon="101.711212">
<ele>61</ele>
<time>2026-10-02T00:29:58Z</time></trkpt>
<trkpt lat="3.145422" lon="101.709609">
<ele>57</ele>
<time>2026-10-02T00:31:20Z</time></trkpt>
<trkpt lat="3.145421" lon="101.709609">
<ele>57</ele>
<time>2026-10-02T00:31:20Z</time></trkpt>
<trkpt lat="3.144511" lon="101.708443">
<ele>53</ele>
<time>2026-10-02T00:32:19Z</time></trkpt>
<trkpt lat="3.14423" lon="101.708055">
<ele>50</ele>
<time>2026-10-02T00:32:38Z</time></trkpt>
<trkpt lat="3.144075" lon="101.707895">
<ele>48</ele>
<time>2026-10-02T00:32:47Z</time></trkpt>
<trkpt lat="3.143857" lon="101.707629">
<ele>48</ele>
<time>2026-10-02T00:33:01Z</time></trkpt>
<trkpt lat="3.14371" lon="101.707465">
<ele>48</ele>
<time>2026-10-02T00:33:10Z</time></trkpt>
<trkpt lat="3.143633" lon="101.707399">
<ele>48</ele>
<time>2026-10-02T00:33:14Z</time></trkpt>
<trkpt lat="3.143588" lon="101.707385">
<ele>48</ele>
<time>2026-10-02T00:33:16Z</time></trkpt>
<trkpt lat="3.143515" lon="101.707397">
<ele>48</ele>
<time>2026-10-02T00:33:19Z</time></trkpt>
<trkpt lat="3.143388" lon="101.70745">
<ele>49</ele>
<time>2026-10-02T00:33:24Z</time></trkpt>
<trkpt lat="3.142953" lon="101.707702">
<ele>55</ele>
<time>2026-10-02T00:33:44Z</time></trkpt>
<trkpt lat="3.142953" lon="101.707702">
<ele>55</ele>
<time>2026-10-02T00:33:44Z</time></trkpt>
<trkpt lat="3.142527" lon="101.707949">
<ele>62</ele>
<time>2026-10-02T00:34:04Z</time></trkpt>
<trkpt lat="3.142449" lon="101.708004">
<ele>62</ele>
<time>2026-10-02T00:34:08Z</time></trkpt>
<trkpt lat="3.142405" lon="101.708071">
<ele>61</ele>
<time>2026-10-02T00:34:11Z</time></trkpt>
<trkpt lat="3.142397" lon="101.708161">
<ele>61</ele>
<time>2026-10-02T00:34:15Z</time></trkpt>
<trkpt lat="3.14242" lon="101.708269">
<ele>62</ele>
<time>2026-10-02T00:34:19Z</time></trkpt>
<trkpt lat="3.142513" lon="101.70842">
<ele>64</ele>
<time>2026-10-02T00:34:26Z</time></trkpt>
<trkpt lat="3.142691" lon="101.708842">
<ele>62</ele>
<time>2026-10-02T00:34:44Z</time></trkpt>
<trkpt lat="3.143164" lon="101.710425">
<ele>59</ele>
<time>2026-10-02T00:35:51Z</time></trkpt>
<trkpt lat="3.143317" lon="101.710995">
<ele>52</ele>
<time>2026-10-02T00:36:14Z</time></trkpt>
<trkpt lat="3.1434104" lon="101.7115283">
<ele>54</ele>
<time>2026-10-02T00:36:36Z</time></trkpt>
<trkpt lat="3.143414" lon="101.711527">
<ele>54</ele>
<time>2026-10-02T00:36:36Z</time></trkpt>
<trkpt lat="3.143536" lon="101.712148">
<ele>53</ele>
<time>2026-10-02T00:37:01Z</time></trkpt>
<trkpt lat="3.143572" lon="101.712214">
<ele>53</ele>
<time>2026-10-02T00:37:04Z</time></trkpt>
<trkpt lat="3.143572" lon="101.712214">
<ele>53</ele>
<time>2026-10-02T00:37:04Z</time></trkpt>
<trkpt lat="3.14361" lon="101.712282">
<ele>52</ele>
<time>2026-10-02T00:37:07Z</time></trkpt>
<trkpt lat="3.14372" lon="101.712236">
<ele>52</ele>
<time>2026-10-02T00:37:12Z</time></trkpt>
<trkpt lat="3.14372" lon="101.712236">
<ele>52</ele>
<time>2026-10-02T00:37:12Z</time></trkpt>
<trkpt lat="3.143963" lon="101.712144">
<ele>53</ele>
<time>2026-10-02T00:37:23Z</time></trkpt>
<trkpt lat="3.146645" lon="101.7113">
<ele>62</ele>
<time>2026-10-02T00:39:15Z</time></trkpt>
<trkpt lat="3.146649" lon="101.711307">
<ele>62</ele>
<time>2026-10-02T00:39:16Z</time></trkpt>
<trkpt lat="3.146649" lon="101.711307">
<ele>62</ele>
<time>2026-10-02T00:39:16Z</time></trkpt>
<trkpt lat="3.146645" lon="101.7113">
<ele>62</ele>
<time>2026-10-02T00:39:16Z</time></trkpt>
<trkpt lat="3.146725" lon="101.711274">
<ele>62</ele>
<time>2026-10-02T00:39:19Z</time></trkpt>
<trkpt lat="3.146771" lon="101.711342">
<ele>62</ele>
<time>2026-10-02T00:39:23Z</time></trkpt>
<trkpt lat="3.146771" lon="101.711342">
<ele>62</ele>
<time>2026-10-02T00:39:23Z</time></trkpt>
<trkpt lat="3.1468714" lon="101.7114802">
<ele>62</ele>
<time>2026-10-02T00:39:29Z</time></trkpt>
<trkpt lat="3.146958" lon="101.7116">
<ele>62</ele>
<time>2026-10-02T00:39:35Z</time></trkpt>
<trkpt lat="3.147439" lon="101.712184">
<ele>64</ele>
<time>2026-10-02T00:40:06Z</time></trkpt>
<trkpt lat="3.147439" lon="101.712184">
<ele>64</ele>
<time>2026-10-02T00:40:06Z</time></trkpt>
<trkpt lat="3.1475189" lon="101.7122764">
<ele>64</ele>
<time>2026-10-02T00:40:10Z</time></trkpt>
<trkpt lat="3.147985" lon="101.712865">
<ele>60</ele>
<time>2026-10-02T00:40:41Z</time></trkpt>
<trkpt lat="3.148025" lon="101.712934">
<ele>60</ele>
<time>2026-10-02T00:40:44Z</time></trkpt>
<trkpt lat="3.148164" lon="101.714257">
<ele>57</ele>
<time>2026-10-02T00:41:37Z</time></trkpt>
<trkpt lat="3.1482003" lon="101.7148488">
<ele>46</ele>
<time>2026-10-02T00:42:01Z</time></trkpt>
<trkpt lat="3.1482614" lon="101.7159534">
<ele>44</ele>
<time>2026-10-02T00:42:45Z</time></trkpt>
<trkpt lat="3.1480953" lon="101.7165059">
<ele>42</ele>
<time>2026-10-02T00:43:08Z</time></trkpt>
<trkpt lat="3.147265" lon="101.7186419">
<ele>42</ele>
<time>2026-10-02T00:44:40Z</time></trkpt>
<trkpt lat="3.1471312" lon="101.7191827">
<ele>42</ele>
<time>2026-10-02T00:45:02Z</time></trkpt>
<trkpt lat="3.1471312" lon="101.7192739">
<ele>42</ele>
<time>2026-10-02T00:45:06Z</time></trkpt>
<trkpt lat="3.1471446" lon="101.7194241">
<ele>42</ele>
<time>2026-10-02T00:45:12Z</time></trkpt>
<trkpt lat="3.147146" lon="101.7194591">
<ele>42</ele>
<time>2026-10-02T00:45:13Z</time></trkpt>
<trkpt lat="3.147174" lon="101.7195609">
<ele>42</ele>
<time>2026-10-02T00:45:17Z</time></trkpt>
<trkpt lat="3.1472838" lon="101.7195153">
<ele>42</ele>
<time>2026-10-02T00:45:22Z</time></trkpt>
<trkpt lat="3.1472705" lon="101.7194724">
<ele>42</ele>
<time>2026-10-02T00:45:24Z</time></trkpt>
<trkpt lat="3.1472651" lon="101.7194161">
<ele>42</ele>
<time>2026-10-02T00:45:26Z</time></trkpt>
<trkpt lat="3.1472624" lon="101.7192632">
<ele>42</ele>
<time>2026-10-02T00:45:32Z</time></trkpt>
<trkpt lat="3.1472705" lon="101.7191076">
<ele>42</ele>
<time>2026-10-02T00:45:39Z</time></trkpt>
<trkpt lat="3.1473588" lon="101.7188019">
<ele>42</ele>
<time>2026-10-02T00:45:51Z</time></trkpt>
<trkpt lat="3.147404" lon="101.7186879">
<ele>42</ele>
<time>2026-10-02T00:45:56Z</time></trkpt>
<trkpt lat="3.1477739" lon="101.717788">
<ele>41</ele>
<time>2026-10-02T00:46:35Z</time></trkpt>
<trkpt lat="3.1481114" lon="101.7168814">
<ele>42</ele>
<time>2026-10-02T00:47:14Z</time></trkpt>
<trkpt lat="3.148406" lon="101.7161196">
<ele>44</ele>
<time>2026-10-02T00:47:47Z</time></trkpt>
<trkpt lat="3.149818" lon="101.713721">
<ele>49</ele>
<time>2026-10-02T00:49:38Z</time></trkpt>
<trkpt lat="3.150019" lon="101.713311">
<ele>54</ele>
<time>2026-10-02T00:49:56Z</time></trkpt>
<trkpt lat="3.150096" lon="101.713122">
<ele>58</ele>
<time>2026-10-02T00:50:04Z</time></trkpt>
<trkpt lat="3.150225" lon="101.712711">
<ele>65</ele>
<time>2026-10-02T00:50:22Z</time></trkpt>
<trkpt lat="3.15029" lon="101.712389">
<ele>68</ele>
<time>2026-10-02T00:50:35Z</time></trkpt>
<trkpt lat="3.150305" lon="101.712228">
<ele>69</ele>
<time>2026-10-02T00:50:41Z</time></trkpt>
<trkpt lat="3.150286" lon="101.711698">
<ele>70</ele>
<time>2026-10-02T00:51:02Z</time></trkpt>
<trkpt lat="3.150251" lon="101.711362">
<ele>68</ele>
<time>2026-10-02T00:51:16Z</time></trkpt>
<trkpt lat="3.15017" lon="101.710984">
<ele>66</ele>
<time>2026-10-02T00:51:31Z</time></trkpt>
<trkpt lat="3.15017" lon="101.710984">
<ele>66</ele>
<time>2026-10-02T00:51:31Z</time></trkpt>
<trkpt lat="3.15015" lon="101.710873">
<ele>66</ele>
<time>2026-10-02T00:51:36Z</time></trkpt>
<trkpt lat="3.150232" lon="101.710768">
<ele>66</ele>
<time>2026-10-02T00:51:41Z</time></trkpt>
<trkpt lat="3.150232" lon="101.710768">
<ele>66</ele>
<time>2026-10-02T00:51:41Z</time></trkpt>
<trkpt lat="3.150394" lon="101.71064">
<ele>69</ele>
<time>2026-10-02T00:51:50Z</time></trkpt>
<trkpt lat="3.150661" lon="101.710526">
<ele>76</ele>
<time>2026-10-02T00:52:01Z</time></trkpt>
<trkpt lat="3.15159" lon="101.710234">
<ele>88</ele>
<time>2026-10-02T00:52:40Z</time></trkpt>
<trkpt lat="3.151955" lon="101.710058">
<ele>78</ele>
<time>2026-10-02T00:52:56Z</time></trkpt>
<trkpt lat="3.152323" lon="101.709815">
<ele>70</ele>
<time>2026-10-02T00:53:14Z</time></trkpt>
<trkpt lat="3.152771" lon="101.709416">
<ele>66</ele>
<time>2026-10-02T00:53:38Z</time></trkpt>
<trkpt lat="3.152934" lon="101.709234">
<ele>69</ele>
<time>2026-10-02T00:53:48Z</time></trkpt>
<trkpt lat="3.153007" lon="101.709129">
<ele>70</ele>
<time>2026-10-02T00:53:53Z</time></trkpt>
<trkpt lat="3.153419" lon="101.708329">
<ele>70</ele>
<time>2026-10-02T00:54:29Z</time></trkpt>
<trkpt lat="3.154336" lon="101.707292">
<ele>84</ele>
<time>2026-10-02T00:55:25Z</time></trkpt>
<trkpt lat="3.154597" lon="101.706984">
<ele>84</ele>
<time>2026-10-02T00:55:41Z</time></trkpt>
<trkpt lat="3.154739" lon="101.706793">
<ele>91</ele>
<time>2026-10-02T00:55:50Z</time></trkpt>
<trkpt lat="3.1549" lon="101.706499">
<ele>97</ele>
<time>2026-10-02T00:56:04Z</time></trkpt>
<trkpt lat="3.155009" lon="101.706245">
<ele>96</ele>
<time>2026-10-02T00:56:15Z</time></trkpt>
<trkpt lat="3.155126" lon="101.70588">
<ele>85</ele>
<time>2026-10-02T00:56:30Z</time></trkpt>
<trkpt lat="3.15518" lon="101.705767">
<ele>81</ele>
<time>2026-10-02T00:56:35Z</time></trkpt>
<trkpt lat="3.15518" lon="101.705767">
<ele>81</ele>
<time>2026-10-02T00:56:35Z</time></trkpt>
<trkpt lat="3.155326" lon="101.705514">
<ele>68</ele>
<time>2026-10-02T00:56:47Z</time></trkpt>
<trkpt lat="3.155562" lon="101.705263">
<ele>57</ele>
<time>2026-10-02T00:57:01Z</time></trkpt>
<trkpt lat="3.155696" lon="101.705169">
<ele>53</ele>
<time>2026-10-02T00:57:07Z</time></trkpt>
<trkpt lat="3.156501" lon="101.704758">
<ele>43</ele>
<time>2026-10-02T00:57:43Z</time></trkpt>
<trkpt lat="3.156504" lon="101.704783">
<ele>43</ele>
<time>2026-10-02T00:57:44Z</time></trkpt>
<trkpt lat="3.156504" lon="101.704783">
<ele>43</ele>
<time>2026-10-02T00:57:44Z</time></trkpt>
<trkpt lat="3.156529" lon="101.704923">
<ele>43</ele>
<time>2026-10-02T00:57:50Z</time></trkpt>
<trkpt lat="3.156653" lon="101.705218">
<ele>40</ele>
<time>2026-10-02T00:58:03Z</time></trkpt>
<trkpt lat="3.156928" lon="101.705753">
<ele>34</ele>
<time>2026-10-02T00:58:27Z</time></trkpt>
<trkpt lat="3.156928" lon="101.705753">
<ele>34</ele>
<time>2026-10-02T00:58:27Z</time></trkpt>
<trkpt lat="3.1570717" lon="101.7060324">
<ele>36</ele>
<time>2026-10-02T00:58:39Z</time></trkpt>
<trkpt lat="3.157072" lon="101.706032">
<ele>36</ele>
<time>2026-10-02T00:58:39Z</time></trkpt>
<trkpt lat="3.157159" lon="101.706202">
<ele>38</ele>
<time>2026-10-02T00:58:47Z</time></trkpt>
<trkpt lat="3.158133" lon="101.70787">
<ele>37</ele>
<time>2026-10-02T01:00:04Z</time></trkpt>
<trkpt lat="3.158283" lon="101.708156">
<ele>38</ele>
<time>2026-10-02T01:00:17Z</time></trkpt>
<trkpt lat="3.158283" lon="101.708156">
<ele>38</ele>
<time>2026-10-02T01:00:17Z</time></trkpt>
<trkpt lat="3.158791" lon="101.709081">
<ele>73</ele>
<time>2026-10-02T01:01:00Z</time></trkpt>
<trkpt lat="3.159035" lon="101.709631">
<ele>70</ele>
<time>2026-10-02T01:01:24Z</time></trkpt>
<trkpt lat="3.159035" lon="101.709631">
<ele>70</ele>
<time>2026-10-02T01:01:24Z</time></trkpt>
<trkpt lat="3.159302" lon="101.710294">
<ele>54</ele>
<time>2026-10-02T01:01:52Z</time></trkpt>
<trkpt lat="3.159302" lon="101.710294">
<ele>54</ele>
<time>2026-10-02T01:01:52Z</time></trkpt>
<trkpt lat="3.159326" lon="101.710365">
<ele>53</ele>
<time>2026-10-02T01:01:55Z</time></trkpt>
<trkpt lat="3.1594426" lon="101.7105031">
<ele>52</ele>
<time>2026-10-02T01:02:03Z</time></trkpt>
<trkpt lat="3.1594618" lon="101.7106103">
<ele>51</ele>
<time>2026-10-02T01:02:07Z</time></trkpt>
<trkpt lat="3.15948" lon="101.71076">
<ele>49</ele>
<time>2026-10-02T01:02:13Z</time></trkpt>
<trkpt lat="3.15948" lon="101.71076">
<ele>49</ele>
<time>2026-10-02T01:02:13Z</time></trkpt>
<trkpt lat="3.159383" lon="101.711568">
<ele>60</ele>
<time>2026-10-02T01:02:45Z</time></trkpt>
<trkpt lat="3.1593" lon="101.711935">
<ele>58</ele>
<time>2026-10-02T01:03:01Z</time></trkpt>
<trkpt lat="3.159051" lon="101.71286">
<ele>53</ele>
<time>2026-10-02T01:03:39Z</time></trkpt>
<trkpt lat="3.159051" lon="101.71286">
<ele>53</ele>
<time>2026-10-02T01:03:39Z</time></trkpt>
<trkpt lat="3.158991" lon="101.713115">
<ele>55</ele>
<time>2026-10-02T01:03:49Z</time></trkpt>
<trkpt lat="3.158963" lon="101.713322">
<ele>56</ele>
<time>2026-10-02T01:03:58Z</time></trkpt>
<trkpt lat="3.158977" lon="101.713651">
<ele>62</ele>
<time>2026-10-02T01:04:11Z</time></trkpt>
<trkpt lat="3.159036" lon="101.713904">
<ele>69</ele>
<time>2026-10-02T01:04:21Z</time></trkpt>
<trkpt lat="3.159108" lon="101.71413">
<ele>75</ele>
<time>2026-10-02T01:04:31Z</time></trkpt>
<trkpt lat="3.159331" lon="101.714562">
<ele>65</ele>
<time>2026-10-02T01:04:50Z</time></trkpt>
<trkpt lat="3.159714" lon="101.71505">
<ele>55</ele>
<time>2026-10-02T01:05:15Z</time></trkpt>
<trkpt lat="3.160049" lon="101.715572">
<ele>47</ele>
<time>2026-10-02T01:05:40Z</time></trkpt>
<trkpt lat="3.16029" lon="101.716069">
<ele>46</ele>
<time>2026-10-02T01:06:02Z</time></trkpt>
<trkpt lat="3.160391" lon="101.716351">
<ele>48</ele>
<time>2026-10-02T01:06:14Z</time></trkpt>
<trkpt lat="3.160391" lon="101.716351">
<ele>48</ele>
<time>2026-10-02T01:06:14Z</time></trkpt>
<trkpt lat="3.160462" lon="101.71655">
<ele>50</ele>
<time>2026-10-02T01:06:22Z</time></trkpt>
<trkpt lat="3.160528" lon="101.717197">
<ele>53</ele>
<time>2026-10-02T01:06:48Z</time></trkpt>
<trkpt lat="3.160492" lon="101.717504">
<ele>55</ele>
<time>2026-10-02T01:07:01Z</time></trkpt>
<trkpt lat="3.160302" lon="101.718366">
<ele>49</ele>
<time>2026-10-02T01:07:36Z</time></trkpt>
<trkpt lat="3.160246" lon="101.718717">
<ele>47</ele>
<time>2026-10-02T01:07:50Z</time></trkpt>
<trkpt lat="3.160216" lon="101.718938">
<ele>46</ele>
<time>2026-10-02T01:07:59Z</time></trkpt>
<trkpt lat="3.160185" lon="101.71949">
<ele>45</ele>
<time>2026-10-02T01:08:21Z</time></trkpt>
<trkpt lat="3.160226" lon="101.719859">
<ele>46</ele>
<time>2026-10-02T01:08:36Z</time></trkpt>
<trkpt lat="3.160327" lon="101.720255">
<ele>46</ele>
<time>2026-10-02T01:08:53Z</time></trkpt>
<trkpt lat="3.160363" lon="101.72071">
<ele>45</ele>
<time>2026-10-02T01:09:11Z</time></trkpt>
<trkpt lat="3.160346" lon="101.722358">
<ele>41</ele>
<time>2026-10-02T01:10:17Z</time></trkpt>
<trkpt lat="3.160346" lon="101.722358">
<ele>41</ele>
<time>2026-10-02T01:10:17Z</time></trkpt>
<trkpt lat="3.160347" lon="101.722754">
<ele>43</ele>
<time>2026-10-02T01:10:33Z</time></trkpt>
<trkpt lat="3.160308" lon="101.722852">
<ele>43</ele>
<time>2026-10-02T01:10:37Z</time></trkpt>
<trkpt lat="3.160296" lon="101.723076">
<ele>44</ele>
<time>2026-10-02T01:10:46Z</time></trkpt>
<trkpt lat="3.160307" lon="101.724337">
<ele>47</ele>
<time>2026-10-02T01:11:36Z</time></trkpt>
<trkpt lat="3.160089" lon="101.726702">
<ele>42</ele>
<time>2026-10-02T01:13:11Z</time></trkpt>
<trkpt lat="3.160103" lon="101.727026">
<ele>44</ele>
<time>2026-10-02T01:13:24Z</time></trkpt>
<trkpt lat="3.160103" lon="101.727026">
<ele>44</ele>
<time>2026-10-02T01:13:24Z</time></trkpt>
<trkpt lat="3.160105" lon="101.727087">
<ele>44</ele>
<time>2026-10-02T01:13:27Z</time></trkpt>
<trkpt lat="3.160232" lon="101.727598">
<ele>48</ele>
<time>2026-10-02T01:13:48Z</time></trkpt>
<trkpt lat="3.160506" lon="101.72842">
<ele>58</ele>
<time>2026-10-02T01:14:23Z</time></trkpt>
<trkpt lat="3.1605865" lon="101.7292439">
<ele>50</ele>
<time>2026-10-02T01:14:56Z</time></trkpt>
<trkpt lat="3.160581" lon="101.729245">
<ele>50</ele>
<time>2026-10-02T01:14:56Z</time></trkpt>
<trkpt lat="3.160631" lon="101.729682">
<ele>47</ele>
<time>2026-10-02T01:15:14Z</time></trkpt>
<trkpt lat="3.160662" lon="101.73018">
<ele>45</ele>
<time>2026-10-02T01:15:34Z</time></trkpt>
<trkpt lat="3.160662" lon="101.73018">
<ele>45</ele>
<time>2026-10-02T01:15:34Z</time></trkpt>
<trkpt lat="3.160651" lon="101.7304238">
<ele>45</ele>
<time>2026-10-02T01:15:43Z</time></trkpt>
<trkpt lat="3.160644" lon="101.730777">
<ele>46</ele>
<time>2026-10-02T01:15:57Z</time></trkpt>
<trkpt lat="3.160578" lon="101.732068">
<ele>45</ele>
<time>2026-10-02T01:16:49Z</time></trkpt>
<trkpt lat="3.160578" lon="101.732068">
<ele>45</ele>
<time>2026-10-02T01:16:49Z</time></trkpt>
<trkpt lat="3.160505" lon="101.733549">
<ele>48</ele>
<time>2026-10-02T01:17:48Z</time></trkpt>
<trkpt lat="3.160535" lon="101.733719">
<ele>48</ele>
<time>2026-10-02T01:17:55Z</time></trkpt>
<trkpt lat="3.16053" lon="101.734505">
<ele>47</ele>
<time>2026-10-02T01:18:27Z</time></trkpt>
<trkpt lat="3.160551" lon="101.734792">
<ele>45</ele>
<time>2026-10-02T01:18:38Z</time></trkpt>
<trkpt lat="3.160551" lon="101.734792">
<ele>45</ele>
<time>2026-10-02T01:18:38Z</time></trkpt>
<trkpt lat="3.160567" lon="101.735021">
<ele>44</ele>
<time>2026-10-02T01:18:48Z</time></trkpt>
<trkpt lat="3.160576" lon="101.735046">
<ele>44</ele>
<time>2026-10-02T01:18:49Z</time></trkpt>
<trkpt lat="3.1606317" lon="101.7352036">
<ele>44</ele>
<time>2026-10-02T01:18:55Z</time></trkpt>
<trkpt lat="3.1606939" lon="101.735312">
<ele>43</ele>
<time>2026-10-02T01:19:00Z</time></trkpt>
<trkpt lat="3.16071" lon="101.735346">
<ele>43</ele>
<time>2026-10-02T01:19:02Z</time></trkpt>
<trkpt lat="3.160793" lon="101.735444">
<ele>43</ele>
<time>2026-10-02T01:19:07Z</time></trkpt>
<trkpt lat="3.160895" lon="101.735505">
<ele>44</ele>
<time>2026-10-02T01:19:12Z</time></trkpt>
<trkpt lat="3.161037" lon="101.735524">
<ele>44</ele>
<time>2026-10-02T01:19:17Z</time></trkpt>
<trkpt lat="3.161877" lon="101.735233">
<ele>42</ele>
<time>2026-10-02T01:19:53Z</time></trkpt>
<trkpt lat="3.162218" lon="101.735161">
<ele>41</ele>
<time>2026-10-02T01:20:07Z</time></trkpt>
<trkpt lat="3.162784" lon="101.734976">
<ele>39</ele>
<time>2026-10-02T01:20:31Z</time></trkpt>
<trkpt lat="3.16301" lon="101.734939">
<ele>39</ele>
<time>2026-10-02T01:20:40Z</time></trkpt>
<trkpt lat="3.163813" lon="101.734925">
<ele>42</ele>
<time>2026-10-02T01:21:12Z</time></trkpt>
<trkpt lat="3.164068" lon="101.734897">
<ele>43</ele>
<time>2026-10-02T01:21:23Z</time></trkpt>
<trkpt lat="3.164161" lon="101.734872">
<ele>44</ele>
<time>2026-10-02T01:21:26Z</time></trkpt>
<trkpt lat="3.164258" lon="101.734786">
<ele>43</ele>
<time>2026-10-02T01:21:32Z</time></trkpt>
<trkpt lat="3.164304" lon="101.73467">
<ele>42</ele>
<time>2026-10-02T01:21:37Z</time></trkpt>
<trkpt lat="3.16431" lon="101.734603">
<ele>42</ele>
<time>2026-10-02T01:21:39Z</time></trkpt>
<trkpt lat="3.164251" lon="101.734154">
<ele>39</ele>
<time>2026-10-02T01:21:57Z</time></trkpt>
<trkpt lat="3.16424" lon="101.733731">
<ele>38</ele>
<time>2026-10-02T01:22:14Z</time></trkpt>
<trkpt lat="3.16425" lon="101.733424">
<ele>38</ele>
<time>2026-10-02T01:22:27Z</time></trkpt>
<trkpt lat="3.164295" lon="101.733075">
<ele>38</ele>
<time>2026-10-02T01:22:41Z</time></trkpt>
<trkpt lat="3.164344" lon="101.732834">
<ele>38</ele>
<time>2026-10-02T01:22:51Z</time></trkpt>
<trkpt lat="3.164568" lon="101.731861">
<ele>41</ele>
<time>2026-10-02T01:23:30Z</time></trkpt>
<trkpt lat="3.164641" lon="101.730966">
<ele>38</ele>
<time>2026-10-02T01:24:06Z</time></trkpt>
<trkpt lat="3.164662" lon="101.729716">
<ele>36</ele>
<time>2026-10-02T01:24:56Z</time></trkpt>
<trkpt lat="3.164539" lon="101.728719">
<ele>39</ele>
<time>2026-10-02T01:25:37Z</time></trkpt>
<trkpt lat="3.164394" lon="101.727795">
<ele>40</ele>
<time>2026-10-02T01:26:14Z</time></trkpt>
<trkpt lat="3.163977" lon="101.726208">
<ele>38</ele>
<time>2026-10-02T01:27:20Z</time></trkpt>
<trkpt lat="3.163933" lon="101.725926">
<ele>38</ele>
<time>2026-10-02T01:27:31Z</time></trkpt>
<trkpt lat="3.163907" lon="101.725564">
<ele>37</ele>
<time>2026-10-02T01:27:46Z</time></trkpt>
<trkpt lat="3.163914" lon="101.725198">
<ele>37</ele>
<time>2026-10-02T01:28:00Z</time></trkpt>
<trkpt lat="3.163957" lon="101.724745">
<ele>37</ele>
<time>2026-10-02T01:28:19Z</time></trkpt>
<trkpt lat="3.164029" lon="101.724322">
<ele>37</ele>
<time>2026-10-02T01:28:36Z</time></trkpt>
<trkpt lat="3.164202" lon="101.723723">
<ele>36</ele>
<time>2026-10-02T01:29:01Z</time></trkpt>
<trkpt lat="3.164531" lon="101.722825">
<ele>38</ele>
<time>2026-10-02T01:29:39Z</time></trkpt>
<trkpt lat="3.165242" lon="101.721363">
<ele>40</ele>
<time>2026-10-02T01:30:44Z</time></trkpt>
<trkpt lat="3.165689" lon="101.72021">
<ele>37</ele>
<time>2026-10-02T01:31:33Z</time></trkpt>
<trkpt lat="3.165813" lon="101.719681">
<ele>35</ele>
<time>2026-10-02T01:31:55Z</time></trkpt>
<trkpt lat="3.165859" lon="101.719273">
<ele>34</ele>
<time>2026-10-02T01:32:12Z</time></trkpt>
<trkpt lat="3.165906" lon="101.718023">
<ele>36</ele>
<time>2026-10-02T01:33:02Z</time></trkpt>
<trkpt lat="3.165881" lon="101.717732">
<ele>36</ele>
<time>2026-10-02T01:33:13Z</time></trkpt>
<trkpt lat="3.165805" lon="101.717299">
<ele>36</ele>
<time>2026-10-02T01:33:31Z</time></trkpt>
<trkpt lat="3.165736" lon="101.717005">
<ele>36</ele>
<time>2026-10-02T01:33:43Z</time></trkpt>
<trkpt lat="3.165549" lon="101.716445">
<ele>35</ele>
<time>2026-10-02T01:34:07Z</time></trkpt>
<trkpt lat="3.165215" lon="101.715737">
<ele>30</ele>
<time>2026-10-02T01:34:38Z</time></trkpt>
<trkpt lat="3.164863" lon="101.71489">
<ele>32</ele>
<time>2026-10-02T01:35:15Z</time></trkpt>
<trkpt lat="3.164297" lon="101.713806">
<ele>32</ele>
<time>2026-10-02T01:36:04Z</time></trkpt>
<trkpt lat="3.163851" lon="101.713156">
<ele>33</ele>
<time>2026-10-02T01:36:35Z</time></trkpt>
<trkpt lat="3.162871" lon="101.711915">
<ele>40</ele>
<time>2026-10-02T01:37:39Z</time></trkpt>
<trkpt lat="3.161739" lon="101.710186">
<ele>50</ele>
<time>2026-10-02T01:39:01Z</time></trkpt>
<trkpt lat="3.161474" lon="101.709751">
<ele>40</ele>
<time>2026-10-02T01:39:22Z</time></trkpt>
<trkpt lat="3.161238" lon="101.709309">
<ele>34</ele>
<time>2026-10-02T01:39:42Z</time></trkpt>
<trkpt lat="3.161042" lon="101.708849">
<ele>36</ele>
<time>2026-10-02T01:40:02Z</time></trkpt>
<trkpt lat="3.160943" lon="101.708545">
<ele>39</ele>
<time>2026-10-02T01:40:15Z</time></trkpt>
<trkpt lat="3.160866" lon="101.70824">
<ele>43</ele>
<time>2026-10-02T01:40:27Z</time></trkpt>
<trkpt lat="3.160778" lon="101.707771">
<ele>45</ele>
<time>2026-10-02T01:40:46Z</time></trkpt>
<trkpt lat="3.160559" lon="101.706038">
<ele>41</ele>
<time>2026-10-02T01:41:56Z</time></trkpt>
<trkpt lat="3.160422" lon="101.705546">
<ele>39</ele>
<time>2026-10-02T01:42:17Z</time></trkpt>
<trkpt lat="3.160248" lon="101.70512">
<ele>36</ele>
<time>2026-10-02T01:42:35Z</time></trkpt>
<trkpt lat="3.160122" lon="101.704988">
<ele>34</ele>
<time>2026-10-02T01:42:42Z</time></trkpt>
<trkpt lat="3.159965" lon="101.704745">
<ele>32</ele>
<time>2026-10-02T01:42:54Z</time></trkpt>
<trkpt lat="3.159801" lon="101.704523">
<ele>31</ele>
<time>2026-10-02T01:43:05Z</time></trkpt>
<trkpt lat="3.159467" lon="101.70417">
<ele>30</ele>
<time>2026-10-02T01:43:24Z</time></trkpt>
<trkpt lat="3.15908" lon="101.703864">
<ele>32</ele>
<time>2026-10-02T01:43:44Z</time></trkpt>
<trkpt lat="3.158713" lon="101.703541">
<ele>35</ele>
<time>2026-10-02T01:44:04Z</time></trkpt>
<trkpt lat="3.158543" lon="101.703367">
<ele>37</ele>
<time>2026-10-02T01:44:13Z</time></trkpt>
<trkpt lat="3.158514" lon="101.70325">
<ele>36</ele>
<time>2026-10-02T01:44:18Z</time></trkpt>
<trkpt lat="3.158532" lon="101.70314">
<ele>35</ele>
<time>2026-10-02T01:44:23Z</time></trkpt>
<trkpt lat="3.158553" lon="101.703106">
<ele>35</ele>
<time>2026-10-02T01:44:24Z</time></trkpt>
<trkpt lat="3.158553" lon="101.703106">
<ele>35</ele>
<time>2026-10-02T01:44:24Z</time></trkpt>
<trkpt lat="3.158681" lon="101.702992">
<ele>33</ele>
<time>2026-10-02T01:44:31Z</time></trkpt>
<trkpt lat="3.158762" lon="101.702977">
<ele>33</ele>
<time>2026-10-02T01:44:34Z</time></trkpt>
<trkpt lat="3.158815" lon="101.702989">
<ele>33</ele>
<time>2026-10-02T01:44:37Z</time></trkpt>
<trkpt lat="3.159139" lon="101.703186">
<ele>34</ele>
<time>2026-10-02T01:44:52Z</time></trkpt>
<trkpt lat="3.159342" lon="101.703336">
<ele>34</ele>
<time>2026-10-02T01:45:02Z</time></trkpt>
<trkpt lat="3.159509" lon="101.703461">
<ele>34</ele>
<time>2026-10-02T01:45:10Z</time></trkpt>
<trkpt lat="3.159867" lon="101.703768">
<ele>32</ele>
<time>2026-10-02T01:45:29Z</time></trkpt>
<trkpt lat="3.160186" lon="101.704144">
<ele>29</ele>
<time>2026-10-02T01:45:49Z</time></trkpt>
<trkpt lat="3.160383" lon="101.704425">
<ele>31</ele>
<time>2026-10-02T01:46:03Z</time></trkpt>
<trkpt lat="3.16063" lon="101.704932">
<ele>34</ele>
<time>2026-10-02T01:46:25Z</time></trkpt>
<trkpt lat="3.16074" lon="101.705284">
<ele>36</ele>
<time>2026-10-02T01:46:40Z</time></trkpt>
<trkpt lat="3.16084" lon="101.705675">
<ele>37</ele>
<time>2026-10-02T01:46:56Z</time></trkpt>
<trkpt lat="3.160878" lon="101.705887">
<ele>38</ele>
<time>2026-10-02T01:47:05Z</time></trkpt>
<trkpt lat="3.160878" lon="101.705887">
<ele>38</ele>
<time>2026-10-02T01:47:05Z</time></trkpt>
<trkpt lat="3.160969" lon="101.706386">
<ele>38</ele>
<time>2026-10-02T01:47:25Z</time></trkpt>
<trkpt lat="3.161131" lon="101.70776">
<ele>40</ele>
<time>2026-10-02T01:48:20Z</time></trkpt>
<trkpt lat="3.161219" lon="101.708206">
<ele>39</ele>
<time>2026-10-02T01:48:39Z</time></trkpt>
<trkpt lat="3.161367" lon="101.708573">
<ele>37</ele>
<time>2026-10-02T01:48:54Z</time></trkpt>
<trkpt lat="3.161585" lon="101.709002">
<ele>34</ele>
<time>2026-10-02T01:49:14Z</time></trkpt>
<trkpt lat="3.163141" lon="101.711458">
<ele>37</ele>
<time>2026-10-02T01:51:10Z</time></trkpt>
<trkpt lat="3.164041" lon="101.712976">
<ele>33</ele>
<time>2026-10-02T01:52:21Z</time></trkpt>
<trkpt lat="3.165214" lon="101.715163">
<ele>32</ele>
<time>2026-10-02T01:54:00Z</time></trkpt>
<trkpt lat="3.165785" lon="101.716426">
<ele>35</ele>
<time>2026-10-02T01:54:56Z</time></trkpt>
<trkpt lat="3.165968" lon="101.716969">
<ele>37</ele>
<time>2026-10-02T01:55:19Z</time></trkpt>
<trkpt lat="3.166117" lon="101.71758">
<ele>39</ele>
<time>2026-10-02T01:55:44Z</time></trkpt>
<trkpt lat="3.166183" lon="101.718049">
<ele>38</ele>
<time>2026-10-02T01:56:03Z</time></trkpt>
<trkpt lat="3.166216" lon="101.718476">
<ele>37</ele>
<time>2026-10-02T01:56:20Z</time></trkpt>
<trkpt lat="3.166213" lon="101.718825">
<ele>36</ele>
<time>2026-10-02T01:56:34Z</time></trkpt>
<trkpt lat="3.166129" lon="101.719866">
<ele>37</ele>
<time>2026-10-02T01:57:16Z</time></trkpt>
<trkpt lat="3.166087" lon="101.720171">
<ele>37</ele>
<time>2026-10-02T01:57:28Z</time></trkpt>
<trkpt lat="3.166033" lon="101.720438">
<ele>37</ele>
<time>2026-10-02T01:57:39Z</time></trkpt>
<trkpt lat="3.165965" lon="101.720676">
<ele>37</ele>
<time>2026-10-02T01:57:49Z</time></trkpt>
<trkpt lat="3.165904" lon="101.720858">
<ele>37</ele>
<time>2026-10-02T01:57:56Z</time></trkpt>
<trkpt lat="3.165632" lon="101.72151">
<ele>40</ele>
<time>2026-10-02T01:58:25Z</time></trkpt>
<trkpt lat="3.16509" lon="101.722642">
<ele>39</ele>
<time>2026-10-02T01:59:15Z</time></trkpt>
<trkpt lat="3.164578" lon="101.723349">
<ele>36</ele>
<time>2026-10-02T01:59:50Z</time></trkpt>
<trkpt lat="3.164476" lon="101.723547">
<ele>36</ele>
<time>2026-10-02T01:59:59Z</time></trkpt>
<trkpt lat="3.164393" lon="101.723775">
<ele>36</ele>
<time>2026-10-02T02:00:08Z</time></trkpt>
<trkpt lat="3.164255" lon="101.724308">
<ele>36</ele>
<time>2026-10-02T02:00:30Z</time></trkpt>
<trkpt lat="3.164183" lon="101.724657">
<ele>36</ele>
<time>2026-10-02T02:00:45Z</time></trkpt>
<trkpt lat="3.164135" lon="101.724999">
<ele>35</ele>
<time>2026-10-02T02:00:59Z</time></trkpt>
<trkpt lat="3.164112" lon="101.725294">
<ele>36</ele>
<time>2026-10-02T02:01:10Z</time></trkpt>
<trkpt lat="3.164117" lon="101.725616">
<ele>36</ele>
<time>2026-10-02T02:01:23Z</time></trkpt>
<trkpt lat="3.164188" lon="101.726218">
<ele>36</ele>
<time>2026-10-02T02:01:48Z</time></trkpt>
<trkpt lat="3.164547" lon="101.727584">
<ele>40</ele>
<time>2026-10-02T02:02:44Z</time></trkpt>
<trkpt lat="3.164694" lon="101.728427">
<ele>39</ele>
<time>2026-10-02T02:03:18Z</time></trkpt>
<trkpt lat="3.164801" lon="101.729186">
<ele>37</ele>
<time>2026-10-02T02:03:49Z</time></trkpt>
<trkpt lat="3.164855" lon="101.730031">
<ele>36</ele>
<time>2026-10-02T02:04:23Z</time></trkpt>
<trkpt lat="3.164853" lon="101.731009">
<ele>38</ele>
<time>2026-10-02T02:05:02Z</time></trkpt>
<trkpt lat="3.164792" lon="101.731769">
<ele>42</ele>
<time>2026-10-02T02:05:32Z</time></trkpt>
<trkpt lat="3.164671" lon="101.732521">
<ele>39</ele>
<time>2026-10-02T02:06:03Z</time></trkpt>
<trkpt lat="3.164559" lon="101.733345">
<ele>38</ele>
<time>2026-10-02T02:06:36Z</time></trkpt>
<trkpt lat="3.164555" lon="101.733885">
<ele>39</ele>
<time>2026-10-02T02:06:58Z</time></trkpt>
<trkpt lat="3.164615" lon="101.734379">
<ele>40</ele>
<time>2026-10-02T02:07:18Z</time></trkpt>
<trkpt lat="3.164704" lon="101.734774">
<ele>41</ele>
<time>2026-10-02T02:07:34Z</time></trkpt>
<trkpt lat="3.164821" lon="101.73513">
<ele>42</ele>
<time>2026-10-02T02:07:49Z</time></trkpt>
<trkpt lat="3.164942" lon="101.735414">
<ele>43</ele>
<time>2026-10-02T02:08:01Z</time></trkpt>
<trkpt lat="3.165613" lon="101.736617">
<ele>41</ele>
<time>2026-10-02T02:08:56Z</time></trkpt>
<trkpt lat="3.165809" lon="101.737034">
<ele>40</ele>
<time>2026-10-02T02:09:15Z</time></trkpt>
<trkpt lat="3.165928" lon="101.737321">
<ele>41</ele>
<time>2026-10-02T02:09:27Z</time></trkpt>
<trkpt lat="3.166015" lon="101.737623">
<ele>41</ele>
<time>2026-10-02T02:09:40Z</time></trkpt>
<trkpt lat="3.166058" lon="101.737883">
<ele>42</ele>
<time>2026-10-02T02:09:50Z</time></trkpt>
<trkpt lat="3.166075" lon="101.738101">
<ele>42</ele>
<time>2026-10-02T02:09:59Z</time></trkpt>
<trkpt lat="3.166066" lon="101.738506">
<ele>43</ele>
<time>2026-10-02T02:10:15Z</time></trkpt>
<trkpt lat="3.166005" lon="101.739006">
<ele>43</ele>
<time>2026-10-02T02:10:36Z</time></trkpt>
<trkpt lat="3.165764" lon="101.740284">
<ele>42</ele>
<time>2026-10-02T02:11:28Z</time></trkpt>
<trkpt lat="3.165702" lon="101.740896">
<ele>44</ele>
<time>2026-10-02T02:11:52Z</time></trkpt>
<trkpt lat="3.165709" lon="101.741271">
<ele>42</ele>
<time>2026-10-02T02:12:07Z</time></trkpt>
<trkpt lat="3.165753" lon="101.741724">
<ele>41</ele>
<time>2026-10-02T02:12:25Z</time></trkpt>
<trkpt lat="3.1659" lon="101.742357">
<ele>43</ele>
<time>2026-10-02T02:12:51Z</time></trkpt>
<trkpt lat="3.166015" lon="101.742786">
<ele>42</ele>
<time>2026-10-02T02:13:09Z</time></trkpt>
<trkpt lat="3.166122" lon="101.743457">
<ele>42</ele>
<time>2026-10-02T02:13:36Z</time></trkpt>
<trkpt lat="3.166116" lon="101.743717">
<ele>42</ele>
<time>2026-10-02T02:13:47Z</time></trkpt>
<trkpt lat="3.166087" lon="101.743961">
<ele>43</ele>
<time>2026-10-02T02:13:57Z</time></trkpt>
<trkpt lat="3.165961" lon="101.744361">
<ele>43</ele>
<time>2026-10-02T02:14:13Z</time></trkpt>
<trkpt lat="3.165712" lon="101.745052">
<ele>45</ele>
<time>2026-10-02T02:14:43Z</time></trkpt>
<trkpt lat="3.165163" lon="101.746403">
<ele>45</ele>
<time>2026-10-02T02:15:41Z</time></trkpt>
<trkpt lat="3.164966" lon="101.746978">
<ele>45</ele>
<time>2026-10-02T02:16:06Z</time></trkpt>
<trkpt lat="3.164669" lon="101.748027">
<ele>46</ele>
<time>2026-10-02T02:16:49Z</time></trkpt>
<trkpt lat="3.164507" lon="101.748762">
<ele>49</ele>
<time>2026-10-02T02:17:19Z</time></trkpt>
<trkpt lat="3.164458" lon="101.749248">
<ele>50</ele>
<time>2026-10-02T02:17:39Z</time></trkpt>
<trkpt lat="3.164214" lon="101.750138">
<ele>45</ele>
<time>2026-10-02T02:18:16Z</time></trkpt>
<trkpt lat="3.164003" lon="101.750581">
<ele>46</ele>
<time>2026-10-02T02:18:35Z</time></trkpt>
<trkpt lat="3.163725" lon="101.751053">
<ele>47</ele>
<time>2026-10-02T02:18:57Z</time></trkpt>
<trkpt lat="3.163371" lon="101.7516">
<ele>47</ele>
<time>2026-10-02T02:19:23Z</time></trkpt>
<trkpt lat="3.163289" lon="101.751766">
<ele>48</ele>
<time>2026-10-02T02:19:31Z</time></trkpt>
<trkpt lat="3.163265" lon="101.751893">
<ele>48</ele>
<time>2026-10-02T02:19:36Z</time></trkpt>
<trkpt lat="3.163279" lon="101.752013">
<ele>49</ele>
<time>2026-10-02T02:19:41Z</time></trkpt>
<trkpt lat="3.163468" lon="101.752159">
<ele>50</ele>
<time>2026-10-02T02:19:50Z</time></trkpt>
<trkpt lat="3.163645" lon="101.752283">
<ele>51</ele>
<time>2026-10-02T02:19:59Z</time></trkpt>
<trkpt lat="3.16371" lon="101.752368">
<ele>51</ele>
<time>2026-10-02T02:20:03Z</time></trkpt>
<trkpt lat="3.164562" lon="101.75281">
<ele>54</ele>
<time>2026-10-02T02:20:42Z</time></trkpt>
<trkpt lat="3.165617" lon="101.753253">
<ele>54</ele>
<time>2026-10-02T02:21:28Z</time></trkpt>
<trkpt lat="3.165728" lon="101.75328">
<ele>54</ele>
<time>2026-10-02T02:21:32Z</time></trkpt>
<trkpt lat="3.166129" lon="101.753334">
<ele>52</ele>
<time>2026-10-02T02:21:48Z</time></trkpt>
<trkpt lat="3.168723" lon="101.753633">
<ele>52</ele>
<time>2026-10-02T02:23:33Z</time></trkpt>
<trkpt lat="3.168884" lon="101.753667">
<ele>53</ele>
<time>2026-10-02T02:23:40Z</time></trkpt>
<trkpt lat="3.168991" lon="101.753705">
<ele>53</ele>
<time>2026-10-02T02:23:44Z</time></trkpt>
<trkpt lat="3.169449" lon="101.753884">
<ele>53</ele>
<time>2026-10-02T02:24:04Z</time></trkpt>
<trkpt lat="3.169745" lon="101.754044">
<ele>52</ele>
<time>2026-10-02T02:24:17Z</time></trkpt>
<trkpt lat="3.1719288" lon="101.755333">
<ele>53</ele>
<time>2026-10-02T02:25:59Z</time></trkpt>
<trkpt lat="3.171929" lon="101.755334">
<ele>53</ele>
<time>2026-10-02T02:25:59Z</time></trkpt>
<trkpt lat="3.172964" lon="101.755927">
<ele>53</ele>
<time>2026-10-02T02:26:47Z</time></trkpt>
<trkpt lat="3.173235" lon="101.756031">
<ele>53</ele>
<time>2026-10-02T02:26:58Z</time></trkpt>
<trkpt lat="3.174103" lon="101.756222">
<ele>53</ele>
<time>2026-10-02T02:27:34Z</time></trkpt>
<trkpt lat="3.175583" lon="101.756489">
<ele>49</ele>
<time>2026-10-02T02:28:34Z</time></trkpt>
<trkpt lat="3.176361" lon="101.756475">
<ele>51</ele>
<time>2026-10-02T02:29:05Z</time></trkpt>
<trkpt lat="3.177725" lon="101.756576">
<ele>50</ele>
<time>2026-10-02T02:30:00Z</time></trkpt>
<trkpt lat="3.177865" lon="101.756573">
<ele>50</ele>
<time>2026-10-02T02:30:06Z</time></trkpt>
<trkpt lat="3.177978" lon="101.756545">
<ele>50</ele>
<time>2026-10-02T02:30:11Z</time></trkpt>
<trkpt lat="3.178149" lon="101.756458">
<ele>50</ele>
<time>2026-10-02T02:30:18Z</time></trkpt>
<trkpt lat="3.178279" lon="101.756355">
<ele>50</ele>
<time>2026-10-02T02:30:25Z</time></trkpt>
<trkpt lat="3.178507" lon="101.7561">
<ele>51</ele>
<time>2026-10-02T02:30:39Z</time></trkpt>
<trkpt lat="3.178789" lon="101.755683">
<ele>52</ele>
<time>2026-10-02T02:30:59Z</time></trkpt>
<trkpt lat="3.179214" lon="101.755184">
<ele>55</ele>
<time>2026-10-02T02:31:25Z</time></trkpt>
<trkpt lat="3.179414" lon="101.754972">
<ele>56</ele>
<time>2026-10-02T02:31:37Z</time></trkpt>
<trkpt lat="3.179522" lon="101.754818">
<ele>56</ele>
<time>2026-10-02T02:31:44Z</time></trkpt>
<trkpt lat="3.179522" lon="101.754818">
<ele>56</ele>
<time>2026-10-02T02:31:44Z</time></trkpt>
<trkpt lat="3.180335" lon="101.753688">
<ele>64</ele>
<time>2026-10-02T02:32:40Z</time></trkpt>
<trkpt lat="3.181055" lon="101.752795">
<ele>81</ele>
<time>2026-10-02T02:33:26Z</time></trkpt>
<trkpt lat="3.182046" lon="101.751617">
<ele>87</ele>
<time>2026-10-02T02:34:27Z</time></trkpt>
<trkpt lat="3.18233" lon="101.75114">
<ele>86</ele>
<time>2026-10-02T02:34:50Z</time></trkpt>
<trkpt lat="3.182449" lon="101.750857">
<ele>84</ele>
<time>2026-10-02T02:35:02Z</time></trkpt>
<trkpt lat="3.182556" lon="101.750467">
<ele>86</ele>
<time>2026-10-02T02:35:18Z</time></trkpt>
<trkpt lat="3.182631" lon="101.749984">
<ele>90</ele>
<time>2026-10-02T02:35:38Z</time></trkpt>
<trkpt lat="3.182745" lon="101.747245">
<ele>108</ele>
<time>2026-10-02T02:37:27Z</time></trkpt>
<trkpt lat="3.1829346" lon="101.7460489">
<ele>96</ele>
<time>2026-10-02T02:38:16Z</time></trkpt>
<trkpt lat="3.183776" lon="101.74082">
<ele>77</ele>
<time>2026-10-02T02:41:48Z</time></trkpt>
<trkpt lat="3.184409" lon="101.737493">
<ele>69</ele>
<time>2026-10-02T02:44:03Z</time></trkpt>
<trkpt lat="3.184742" lon="101.736563">
<ele>71</ele>
<time>2026-10-02T02:44:43Z</time></trkpt>
<trkpt lat="3.18502" lon="101.735943">
<ele>73</ele>
<time>2026-10-02T02:45:10Z</time></trkpt>
<trkpt lat="3.185875" lon="101.734428">
<ele>75</ele>
<time>2026-10-02T02:46:20Z</time></trkpt>
<trkpt lat="3.186058" lon="101.734046">
<ele>75</ele>
<time>2026-10-02T02:46:37Z</time></trkpt>
<trkpt lat="3.186135" lon="101.733852">
<ele>74</ele>
<time>2026-10-02T02:46:45Z</time></trkpt>
<trkpt lat="3.186188" lon="101.733658">
<ele>73</ele>
<time>2026-10-02T02:46:53Z</time></trkpt>
<trkpt lat="3.186236" lon="101.733132">
<ele>69</ele>
<time>2026-10-02T02:47:14Z</time></trkpt>
<trkpt lat="3.186229" lon="101.732901">
<ele>67</ele>
<time>2026-10-02T02:47:23Z</time></trkpt>
<trkpt lat="3.186199" lon="101.732671">
<ele>66</ele>
<time>2026-10-02T02:47:33Z</time></trkpt>
<trkpt lat="3.186121" lon="101.732355">
<ele>65</ele>
<time>2026-10-02T02:47:46Z</time></trkpt>
<trkpt lat="3.186013" lon="101.732047">
<ele>64</ele>
<time>2026-10-02T02:47:59Z</time></trkpt>
<trkpt lat="3.185265" lon="101.730899">
<ele>65</ele>
<time>2026-10-02T02:48:54Z</time></trkpt>
<trkpt lat="3.184598" lon="101.729909">
<ele>60</ele>
<time>2026-10-02T02:49:41Z</time></trkpt>
<trkpt lat="3.183676" lon="101.728471">
<ele>56</ele>
<time>2026-10-02T02:50:50Z</time></trkpt>
<trkpt lat="3.182991" lon="101.727355">
<ele>56</ele>
<time>2026-10-02T02:51:42Z</time></trkpt>
<trkpt lat="3.182562" lon="101.726604">
<ele>53</ele>
<time>2026-10-02T02:52:17Z</time></trkpt>
<trkpt lat="3.182327" lon="101.725917">
<ele>47</ele>
<time>2026-10-02T02:52:46Z</time></trkpt>
<trkpt lat="3.182198" lon="101.725209">
<ele>46</ele>
<time>2026-10-02T02:53:15Z</time></trkpt>
<trkpt lat="3.182337" lon="101.720913">
<ele>42</ele>
<time>2026-10-02T02:56:07Z</time></trkpt>
<trkpt lat="3.182384" lon="101.720518">
<ele>41</ele>
<time>2026-10-02T02:56:23Z</time></trkpt>
<trkpt lat="3.182455" lon="101.720163">
<ele>41</ele>
<time>2026-10-02T02:56:37Z</time></trkpt>
<trkpt lat="3.182586" lon="101.7197">
<ele>41</ele>
<time>2026-10-02T02:56:56Z</time></trkpt>
<trkpt lat="3.182755" lon="101.719239">
<ele>42</ele>
<time>2026-10-02T02:57:16Z</time></trkpt>
<trkpt lat="3.182936" lon="101.718869">
<ele>43</ele>
<time>2026-10-02T02:57:32Z</time></trkpt>
<trkpt lat="3.183063" lon="101.718648">
<ele>44</ele>
<time>2026-10-02T02:57:43Z</time></trkpt>
<trkpt lat="3.184435" lon="101.716823">
<ele>46</ele>
<time>2026-10-02T02:59:14Z</time></trkpt>
<trkpt lat="3.184861" lon="101.716175">
<ele>46</ele>
<time>2026-10-02T02:59:45Z</time></trkpt>
<trkpt lat="3.185083" lon="101.71573">
<ele>46</ele>
<time>2026-10-02T03:00:05Z</time></trkpt>
<trkpt lat="3.185289" lon="101.715157">
<ele>46</ele>
<time>2026-10-02T03:00:29Z</time></trkpt>
<trkpt lat="3.185505" lon="101.714159">
<ele>45</ele>
<time>2026-10-02T03:01:10Z</time></trkpt>
<trkpt lat="3.185551" lon="101.713421">
<ele>47</ele>
<time>2026-10-02T03:01:40Z</time></trkpt>
<trkpt lat="3.18611" lon="101.706405">
<ele>45</ele>
<time>2026-10-02T03:06:21Z</time></trkpt>
<trkpt lat="3.18611" lon="101.706405">
<ele>45</ele>
<time>2026-10-02T03:06:21Z</time></trkpt>
<trkpt lat="3.186204" lon="101.704746">
<ele>46</ele>
<time>2026-10-02T03:07:28Z</time></trkpt>
<trkpt lat="3.18631" lon="101.704273">
<ele>47</ele>
<time>2026-10-02T03:07:47Z</time></trkpt>
<trkpt lat="3.186466" lon="101.703884">
<ele>48</ele>
<time>2026-10-02T03:08:04Z</time></trkpt>
<trkpt lat="3.186701" lon="101.703463">
<ele>48</ele>
<time>2026-10-02T03:08:23Z</time></trkpt>
<trkpt lat="3.187098" lon="101.702895">
<ele>48</ele>
<time>2026-10-02T03:08:51Z</time></trkpt>
<trkpt lat="3.188452" lon="101.70115">
<ele>43</ele>
<time>2026-10-02T03:10:20Z</time></trkpt>
<trkpt lat="3.188808" lon="101.700668">
<ele>40</ele>
<time>2026-10-02T03:10:44Z</time></trkpt>
<trkpt lat="3.189018" lon="101.700327">
<ele>41</ele>
<time>2026-10-02T03:11:00Z</time></trkpt>
<trkpt lat="3.189286" lon="101.699817">
<ele>41</ele>
<time>2026-10-02T03:11:23Z</time></trkpt>
<trkpt lat="3.18957" lon="101.699334">
<ele>38</ele>
<time>2026-10-02T03:11:45Z</time></trkpt>
<trkpt lat="3.19021" lon="101.698158">
<ele>37</ele>
<time>2026-10-02T03:12:39Z</time></trkpt>
<trkpt lat="3.190656" lon="101.697">
<ele>40</ele>
<time>2026-10-02T03:13:28Z</time></trkpt>
<trkpt lat="3.190734" lon="101.696747">
<ele>41</ele>
<time>2026-10-02T03:13:39Z</time></trkpt>
<trkpt lat="3.190868" lon="101.696114">
<ele>42</ele>
<time>2026-10-02T03:14:05Z</time></trkpt>
<trkpt lat="3.191266" lon="101.693642">
<ele>42</ele>
<time>2026-10-02T03:15:45Z</time></trkpt>
<trkpt lat="3.191358" lon="101.693156">
<ele>44</ele>
<time>2026-10-02T03:16:05Z</time></trkpt>
<trkpt lat="3.191412" lon="101.692664">
<ele>46</ele>
<time>2026-10-02T03:16:25Z</time></trkpt>
<trkpt lat="3.191441" lon="101.692151">
<ele>45</ele>
<time>2026-10-02T03:16:45Z</time></trkpt>
<trkpt lat="3.191438" lon="101.691769">
<ele>44</ele>
<time>2026-10-02T03:17:00Z</time></trkpt>
<trkpt lat="3.191339" lon="101.690617">
<ele>42</ele>
<time>2026-10-02T03:17:47Z</time></trkpt>
<trkpt lat="3.191323" lon="101.690343">
<ele>40</ele>
<time>2026-10-02T03:17:58Z</time></trkpt>
<trkpt lat="3.191323" lon="101.689788">
<ele>38</ele>
<time>2026-10-02T03:18:20Z</time></trkpt>
<trkpt lat="3.191396" lon="101.68916">
<ele>40</ele>
<time>2026-10-02T03:18:45Z</time></trkpt>
<trkpt lat="3.191692" lon="101.687561">
<ele>42</ele>
<time>2026-10-02T03:19:50Z</time></trkpt>
<trkpt lat="3.191797" lon="101.687067">
<ele>42</ele>
<time>2026-10-02T03:20:11Z</time></trkpt>
<trkpt lat="3.191883" lon="101.686487">
<ele>42</ele>
<time>2026-10-02T03:20:34Z</time></trkpt>
<trkpt lat="3.191898" lon="101.686133">
<ele>42</ele>
<time>2026-10-02T03:20:48Z</time></trkpt>
<trkpt lat="3.191892" lon="101.685618">
<ele>43</ele>
<time>2026-10-02T03:21:09Z</time></trkpt>
<trkpt lat="3.19178" lon="101.683388">
<ele>43</ele>
<time>2026-10-02T03:22:38Z</time></trkpt>
<trkpt lat="3.191795" lon="101.68283">
<ele>44</ele>
<time>2026-10-02T03:23:00Z</time></trkpt>
<trkpt lat="3.191833" lon="101.682515">
<ele>44</ele>
<time>2026-10-02T03:23:13Z</time></trkpt>
<trkpt lat="3.191961" lon="101.681724">
<ele>43</ele>
<time>2026-10-02T03:23:45Z</time></trkpt>
<trkpt lat="3.192218" lon="101.68039">
<ele>42</ele>
<time>2026-10-02T03:24:40Z</time></trkpt>
<trkpt lat="3.192409" lon="101.678439">
<ele>38</ele>
<time>2026-10-02T03:25:58Z</time></trkpt>
<trkpt lat="3.192419" lon="101.678252">
<ele>38</ele>
<time>2026-10-02T03:26:06Z</time></trkpt>
<trkpt lat="3.192363" lon="101.677721">
<ele>38</ele>
<time>2026-10-02T03:26:27Z</time></trkpt>
<trkpt lat="3.192178" lon="101.676438">
<ele>40</ele>
<time>2026-10-02T03:27:19Z</time></trkpt>
<trkpt lat="3.192164" lon="101.676092">
<ele>41</ele>
<time>2026-10-02T03:27:33Z</time></trkpt>
<trkpt lat="3.192142" lon="101.674349">
<ele>40</ele>
<time>2026-10-02T03:28:42Z</time></trkpt>
<trkpt lat="3.192172" lon="101.673428">
<ele>43</ele>
<time>2026-10-02T03:29:19Z</time></trkpt>
<trkpt lat="3.192224" lon="101.672594">
<ele>41</ele>
<time>2026-10-02T03:29:53Z</time></trkpt>
<trkpt lat="3.192138" lon="101.671824">
<ele>41</ele>
<time>2026-10-02T03:30:24Z</time></trkpt>
<trkpt lat="3.192031" lon="101.67139">
<ele>41</ele>
<time>2026-10-02T03:30:42Z</time></trkpt>
<trkpt lat="3.191941" lon="101.671187">
<ele>41</ele>
<time>2026-10-02T03:30:50Z</time></trkpt>
<trkpt lat="3.191834" lon="101.671024">
<ele>42</ele>
<time>2026-10-02T03:30:58Z</time></trkpt>
<trkpt lat="3.191585" lon="101.670771">
<ele>42</ele>
<time>2026-10-02T03:31:12Z</time></trkpt>
<trkpt lat="3.191585" lon="101.670771">
<ele>42</ele>
<time>2026-10-02T03:31:12Z</time></trkpt>
<trkpt lat="3.190453" lon="101.669718">
<ele>42</ele>
<time>2026-10-02T03:32:14Z</time></trkpt>
<trkpt lat="3.1902" lon="101.669567">
<ele>42</ele>
<time>2026-10-02T03:32:26Z</time></trkpt>
<trkpt lat="3.190085" lon="101.669522">
<ele>42</ele>
<time>2026-10-02T03:32:31Z</time></trkpt>
<trkpt lat="3.189891" lon="101.669486">
<ele>42</ele>
<time>2026-10-02T03:32:39Z</time></trkpt>
<trkpt lat="3.189724" lon="101.669483">
<ele>43</ele>
<time>2026-10-02T03:32:46Z</time></trkpt>
<trkpt lat="3.188845" lon="101.669575">
<ele>42</ele>
<time>2026-10-02T03:33:21Z</time></trkpt>
<trkpt lat="3.186246" lon="101.67023">
<ele>40</ele>
<time>2026-10-02T03:35:09Z</time></trkpt>
<trkpt lat="3.185689" lon="101.6704">
<ele>43</ele>
<time>2026-10-02T03:35:32Z</time></trkpt>
<trkpt lat="3.185087" lon="101.670549">
<ele>43</ele>
<time>2026-10-02T03:35:57Z</time></trkpt>
<trkpt lat="3.182409" lon="101.671176">
<ele>45</ele>
<time>2026-10-02T03:37:47Z</time></trkpt>
<trkpt lat="3.180656" lon="101.671545">
<ele>51</ele>
<time>2026-10-02T03:38:59Z</time></trkpt>
<trkpt lat="3.18009" lon="101.671714">
<ele>56</ele>
<time>2026-10-02T03:39:22Z</time></trkpt>
<trkpt lat="3.179901" lon="101.671799">
<ele>59</ele>
<time>2026-10-02T03:39:31Z</time></trkpt>
<trkpt lat="3.179476" lon="101.67209">
<ele>66</ele>
<time>2026-10-02T03:39:51Z</time></trkpt>
<trkpt lat="3.179242" lon="101.672296">
<ele>69</ele>
<time>2026-10-02T03:40:04Z</time></trkpt>
<trkpt lat="3.179033" lon="101.672564">
<ele>70</ele>
<time>2026-10-02T03:40:17Z</time></trkpt>
<trkpt lat="3.178771" lon="101.673013">
<ele>69</ele>
<time>2026-10-02T03:40:38Z</time></trkpt>
<trkpt lat="3.178697" lon="101.673198">
<ele>69</ele>
<time>2026-10-02T03:40:46Z</time></trkpt>
<trkpt lat="3.178642" lon="101.673398">
<ele>68</ele>
<time>2026-10-02T03:40:54Z</time></trkpt>
<trkpt lat="3.178598" lon="101.673636">
<ele>66</ele>
<time>2026-10-02T03:41:04Z</time></trkpt>
<trkpt lat="3.178307" lon="101.676669">
<ele>48</ele>
<time>2026-10-02T03:43:06Z</time></trkpt>
<trkpt lat="3.178241" lon="101.677179">
<ele>48</ele>
<time>2026-10-02T03:43:27Z</time></trkpt>
<trkpt lat="3.178185" lon="101.677475">
<ele>47</ele>
<time>2026-10-02T03:43:39Z</time></trkpt>
<trkpt lat="3.178104" lon="101.67778">
<ele>45</ele>
<time>2026-10-02T03:43:51Z</time></trkpt>
<trkpt lat="3.177991" lon="101.67808">
<ele>44</ele>
<time>2026-10-02T03:44:04Z</time></trkpt>
<trkpt lat="3.177857" lon="101.678372">
<ele>43</ele>
<time>2026-10-02T03:44:17Z</time></trkpt>
<trkpt lat="3.177639" lon="101.678775">
<ele>44</ele>
<time>2026-10-02T03:44:35Z</time></trkpt>
<trkpt lat="3.177403" lon="101.679137">
<ele>44</ele>
<time>2026-10-02T03:44:53Z</time></trkpt>
<trkpt lat="3.177129" lon="101.679474">
<ele>42</ele>
<time>2026-10-02T03:45:10Z</time></trkpt>
<trkpt lat="3.17659" lon="101.680087">
<ele>38</ele>
<time>2026-10-02T03:45:43Z</time></trkpt>
<trkpt lat="3.174881" lon="101.681903">
<ele>42</ele>
<time>2026-10-02T03:47:23Z</time></trkpt>
<trkpt lat="3.174252" lon="101.682534">
<ele>39</ele>
<time>2026-10-02T03:47:58Z</time></trkpt>
<trkpt lat="3.173116" lon="101.683563">
<ele>42</ele>
<time>2026-10-02T03:49:00Z</time></trkpt>
<trkpt lat="3.172922" lon="101.683711">
<ele>42</ele>
<time>2026-10-02T03:49:09Z</time></trkpt>
<trkpt lat="3.172658" lon="101.683877">
<ele>43</ele>
<time>2026-10-02T03:49:22Z</time></trkpt>
<trkpt lat="3.172499" lon="101.683958">
<ele>44</ele>
<time>2026-10-02T03:49:29Z</time></trkpt>
<trkpt lat="3.171354" lon="101.684417">
<ele>44</ele>
<time>2026-10-02T03:50:19Z</time></trkpt>
<trkpt lat="3.171187" lon="101.684502">
<ele>44</ele>
<time>2026-10-02T03:50:26Z</time></trkpt>
<trkpt lat="3.170868" lon="101.684721">
<ele>43</ele>
<time>2026-10-02T03:50:42Z</time></trkpt>
<trkpt lat="3.170568" lon="101.68498">
<ele>42</ele>
<time>2026-10-02T03:50:57Z</time></trkpt>
<trkpt lat="3.170467" lon="101.685094">
<ele>41</ele>
<time>2026-10-02T03:51:03Z</time></trkpt>
<trkpt lat="3.170109" lon="101.685565">
<ele>40</ele>
<time>2026-10-02T03:51:27Z</time></trkpt>
<trkpt lat="3.168719" lon="101.687559">
<ele>38</ele>
<time>2026-10-02T03:53:04Z</time></trkpt>
<trkpt lat="3.16818" lon="101.688274">
<ele>48</ele>
<time>2026-10-02T03:53:40Z</time></trkpt>
<trkpt lat="3.167817" lon="101.688731">
<ele>44</ele>
<time>2026-10-02T03:54:04Z</time></trkpt>
<trkpt lat="3.167532" lon="101.689135">
<ele>42</ele>
<time>2026-10-02T03:54:23Z</time></trkpt>
<trkpt lat="3.167312" lon="101.6894">
<ele>41</ele>
<time>2026-10-02T03:54:37Z</time></trkpt>
<trkpt lat="3.165902" lon="101.690914">
<ele>42</ele>
<time>2026-10-02T03:56:00Z</time></trkpt>
<trkpt lat="3.165254" lon="101.691484">
<ele>46</ele>
<time>2026-10-02T03:56:35Z</time></trkpt>
<trkpt lat="3.164688" lon="101.691831">
<ele>46</ele>
<time>2026-10-02T03:57:01Z</time></trkpt>
<trkpt lat="3.164332" lon="101.692029">
<ele>47</ele>
<time>2026-10-02T03:57:18Z</time></trkpt>
<trkpt lat="3.16345" lon="101.692287">
<ele>41</ele>
<time>2026-10-02T03:57:54Z</time></trkpt>
<trkpt lat="3.163139" lon="101.692357">
<ele>39</ele>
<time>2026-10-02T03:58:07Z</time></trkpt>
<trkpt lat="3.162292" lon="101.692391">
<ele>37</ele>
<time>2026-10-02T03:58:41Z</time></trkpt>
<trkpt lat="3.161835" lon="101.692431">
<ele>38</ele>
<time>2026-10-02T03:59:00Z</time></trkpt>
<trkpt lat="3.161418" lon="101.692444">
<ele>41</ele>
<time>2026-10-02T03:59:16Z</time></trkpt>
<trkpt lat="3.161057" lon="101.692523">
<ele>45</ele>
<time>2026-10-02T03:59:31Z</time></trkpt>
<trkpt lat="3.160827" lon="101.692589">
<ele>47</ele>
<time>2026-10-02T03:59:41Z</time></trkpt>
<trkpt lat="3.16037" lon="101.692751">
<ele>44</ele>
<time>2026-10-02T04:00:00Z</time></trkpt>
<trkpt lat="3.160079" lon="101.692865">
<ele>41</ele>
<time>2026-10-02T04:00:13Z</time></trkpt>
<trkpt lat="3.159219" lon="101.693245">
<ele>32</ele>
<time>2026-10-02T04:00:50Z</time></trkpt>
<trkpt lat="3.156993" lon="101.694056">
<ele>41</ele>
<time>2026-10-02T04:02:25Z</time></trkpt>
<trkpt lat="3.156822" lon="101.6941">
<ele>39</ele>
<time>2026-10-02T04:02:32Z</time></trkpt>
<trkpt lat="3.156584" lon="101.694131">
<ele>36</ele>
<time>2026-10-02T04:02:42Z</time></trkpt>
<trkpt lat="3.156237" lon="101.694139">
<ele>34</ele>
<time>2026-10-02T04:02:56Z</time></trkpt>
<trkpt lat="3.155862" lon="101.694121">
<ele>33</ele>
<time>2026-10-02T04:03:11Z</time></trkpt>
<trkpt lat="3.155648" lon="101.694095">
<ele>34</ele>
<time>2026-10-02T04:03:20Z</time></trkpt>
<trkpt lat="3.154706" lon="101.693825">
<ele>41</ele>
<time>2026-10-02T04:03:59Z</time></trkpt>
<trkpt lat="3.154127" lon="101.693637">
<ele>45</ele>
<time>2026-10-02T04:04:23Z</time></trkpt>
<trkpt lat="3.153749" lon="101.69349">
<ele>47</ele>
<time>2026-10-02T04:04:39Z</time></trkpt>
<trkpt lat="3.153561" lon="101.693433">
<ele>48</ele>
<time>2026-10-02T04:04:47Z</time></trkpt>
<trkpt lat="3.152105" lon="101.693119">
<ele>35</ele>
<time>2026-10-02T04:05:47Z</time></trkpt>
<trkpt lat="3.148381" lon="101.692374">
<ele>37</ele>
<time>2026-10-02T04:08:19Z</time></trkpt>
<trkpt lat="3.147865" lon="101.692329">
<ele>40</ele>
<time>2026-10-02T04:08:40Z</time></trkpt>
<trkpt lat="3.147427" lon="101.692383">
<ele>39</ele>
<time>2026-10-02T04:08:58Z</time></trkpt>
<trkpt lat="3.146916" lon="101.692534">
<ele>41</ele>
<time>2026-10-02T04:09:19Z</time></trkpt>
<trkpt lat="3.146508" lon="101.692732">
<ele>43</ele>
<time>2026-10-02T04:09:37Z</time></trkpt>
<trkpt lat="3.1462333" lon="101.6929355">
<ele>44</ele>
<time>2026-10-02T04:09:51Z</time></trkpt>
<trkpt lat="3.145968" lon="101.693132">
<ele>45</ele>
<time>2026-10-02T04:10:04Z</time></trkpt>
<trkpt lat="3.145786" lon="101.693242">
<ele>45</ele>
<time>2026-10-02T04:10:13Z</time></trkpt>
<trkpt lat="3.145336" lon="101.693417">
<ele>43</ele>
<time>2026-10-02T04:10:32Z</time></trkpt>
<trkpt lat="3.145155" lon="101.693445">
<ele>42</ele>
<time>2026-10-02T04:10:39Z</time></trkpt>
<trkpt lat="3.145155" lon="101.693445">
<ele>42</ele>
<time>2026-10-02T04:10:39Z</time></trkpt>
<trkpt lat="3.144882" lon="101.693454">
<ele>42</ele>
<time>2026-10-02T04:10:50Z</time></trkpt>
<trkpt lat="3.144738" lon="101.693431">
<ele>43</ele>
<time>2026-10-02T04:10:56Z</time></trkpt>
<trkpt lat="3.1445433" lon="101.6933772">
<ele>45</ele>
<time>2026-10-02T04:11:04Z</time></trkpt>
<trkpt lat="3.1440995" lon="101.6932163">
<ele>47</ele>
<time>2026-10-02T04:11:23Z</time></trkpt>
<trkpt lat="3.1439335" lon="101.6931707">
<ele>45</ele>
<time>2026-10-02T04:11:30Z</time></trkpt>
<trkpt lat="3.143663" lon="101.6930822">
<ele>43</ele>
<time>2026-10-02T04:11:41Z</time></trkpt>
<trkpt lat="3.1434648" lon="101.6930258">
<ele>42</ele>
<time>2026-10-02T04:11:50Z</time></trkpt>
<trkpt lat="3.1434594" lon="101.693058">
<ele>42</ele>
<time>2026-10-02T04:11:51Z</time></trkpt>
<trkpt lat="3.1436737" lon="101.6931143">
<ele>43</ele>
<time>2026-10-02T04:12:00Z</time></trkpt>
<trkpt lat="3.1439227" lon="101.6931975">
<ele>45</ele>
<time>2026-10-02T04:12:10Z</time></trkpt>
<trkpt lat="3.1440299" lon="101.6932619">
<ele>47</ele>
<time>2026-10-02T04:12:15Z</time></trkpt>
<trkpt lat="3.1442548" lon="101.6933611">
<ele>48</ele>
<time>2026-10-02T04:12:25Z</time></trkpt>
<trkpt lat="3.1444198" lon="101.6934362">
<ele>46</ele>
<time>2026-10-02T04:12:32Z</time></trkpt>
<trkpt lat="3.1448789" lon="101.6935596">
<ele>41</ele>
<time>2026-10-02T04:12:51Z</time></trkpt>
<trkpt lat="3.1453275" lon="101.6936469">
<ele>41</ele>
<time>2026-10-02T04:13:10Z</time></trkpt>
<trkpt lat="3.1455243" lon="101.6936749">
<ele>41</ele>
<time>2026-10-02T04:13:18Z</time></trkpt>
<trkpt lat="3.1458249" lon="101.6937254">
<ele>42</ele>
<time>2026-10-02T04:13:30Z</time></trkpt>
<trkpt lat="3.146377" lon="101.693834">
<ele>40</ele>
<time>2026-10-02T04:13:53Z</time></trkpt>
<trkpt lat="3.147221" lon="101.693981">
<ele>36</ele>
<time>2026-10-02T04:14:27Z</time></trkpt>
<trkpt lat="3.147221" lon="101.693981">
<ele>36</ele>
<time>2026-10-02T04:14:27Z</time></trkpt>
<trkpt lat="3.148555" lon="101.694243">
<ele>34</ele>
<time>2026-10-02T04:15:21Z</time></trkpt>
</trkseg>
</trk>
</gpx>